<?xml version="1.0" encoding="UTF-8"?>
<kml xmlns="http://www.opengis.net/kml/2.2"
	xmlns:gx="http://www.google.com/kml/ext/2.2">
<Document>
	<Style id="transparentPolygon">
		<LineStyle>
<color>FF0000FF</color>
<width>4</width>
		</LineStyle>
		<PolyStyle>
			<color>7FFF0000</color>
		</PolyStyle>
	</Style>
<Placemark>
<name>arelakamapur pandurang b ramannanavar 24</name><visibility>1</visibility>
<description><![CDATA[<b>Area:</b><br>&nbsp;&nbsp;&nbsp;&nbsp;2074.86m²<br>&nbsp;&nbsp;&nbsp;&nbsp;0.2ha<br>&nbsp;&nbsp;&nbsp;&nbsp;0.0km²<br>&nbsp;&nbsp;&nbsp;&nbsp;22333.65ft²<br>&nbsp;&nbsp;&nbsp;&nbsp;2481.51yd²<br>&nbsp;&nbsp;&nbsp;&nbsp;0.51acre<br>&nbsp;&nbsp;&nbsp;&nbsp;0.0mi²<br><b>Distance:</b><br>&nbsp;&nbsp;&nbsp;&nbsp;210.48m<br>&nbsp;&nbsp;&nbsp;&nbsp;0.21km<br>&nbsp;&nbsp;&nbsp;&nbsp;690.57ft<br>&nbsp;&nbsp;&nbsp;&nbsp;230.19yd<br>&nbsp;&nbsp;&nbsp;&nbsp;0.13mi]]></description>
	<styleUrl>#transparentPolygon</styleUrl>	<Polygon>		<outerBoundaryIs>			<LinearRing>
				<tessellate>1</tessellate>
				<altitudeMode>clampToGround</altitudeMode>
				<coordinates>
					75.23210593499243,14.749374794773757,454.0
					75.23209495469928,14.749379991553724,455.0
					75.23208539932966,14.749393863603473,455.0
					75.23207416757941,14.749408406205475,455.0
					75.2320680487901,14.749417249113321,455.0
					75.23206176236272,14.749425672926009,455.0
					75.2320490218699,14.749439880251884,454.0
					75.23204223252833,14.74944700486958,454.0
					75.23203670047224,14.749459074810147,455.0
					75.23202831856906,14.749464397318661,455.0
					75.232017589733,14.749473952688277,455.0
					75.23200820200145,14.749481454491615,455.0
					75.23199755698442,14.74948950111866,455.0
					75.23198967799544,14.74949658382684,455.0
					75.2319834753871,14.749508234672248,454.0
					75.23197023198009,14.749518963508308,454.0
					75.23195782676339,14.74953643977642,454.0
					75.23195321671665,14.749550144188106,453.0
					75.2319697290659,14.749556304886937,452.0
					75.23198112845421,14.749560747295618,452.0
					75.23199118673801,14.749565566889942,452.0
					75.23199990391731,14.749571308493614,451.0
					75.23200862109661,14.749580612406135,450.0
					75.23201733827591,14.749584174714983,450.0
					75.23203192278743,14.749588156118989,450.0
					75.23204416036606,14.749594652093947,451.0
					75.23205321282148,14.749598926864564,451.0
					75.23206729441881,14.749608356505632,451.0
					75.23207500576973,14.74961606785655,451.0
					75.23208950646222,14.749623611569405,451.0
					75.23210182785988,14.749634969048202,450.0
					75.23210987448692,14.74964196793735,450.0
					75.2321143168956,14.749656300991774,449.0
					75.23212445899844,14.749661204405129,448.0
					75.23213485255837,14.749666317366064,448.0
					75.23215069435537,14.749668622389436,448.0
					75.23215848952532,14.749676249921322,449.0
					75.2321716491133,14.74968547001481,448.0
					75.23218061774969,14.749698042869568,450.0
					75.23217399604619,14.74971057381481,453.0
					75.23216175846756,14.749720003455877,455.0
					75.23215781897306,14.749730858020484,455.0
					75.2321610879153,14.749746741726995,454.0
					75.23216863162816,14.749755458906293,454.0
					75.23218254558742,14.749760488048196,452.0
					75.23218891583383,14.749767780303955,453.0
					75.23217676207423,14.749765936285257,453.0
					75.23218715563416,14.74976266734302,452.0
					75.2321957051754,14.74975872784853,452.0
					75.23218782618642,14.749764259904623,452.0
					75.2321801148355,14.749771426431835,451.0
					75.23236242122948,14.749560579657555,455.0
					75.23239402100444,14.749541049823165,458.0
					75.23242369294167,14.749557436443865,453.0
					75.23243400268257,14.749549347907305,452.0
					75.23244028910995,14.749532626010478,453.0
					75.23245185613632,14.74951347336173,453.0
					75.2324613276869,14.749505426734686,454.0
					75.23246970959008,14.749498930759728,454.0
					75.23247733712196,14.749482083134353,455.0
					75.23248345591128,14.749469175003469,455.0
					75.2324911672622,14.749457482248545,454.0
					75.23250340484083,14.749439712613821,454.0
					75.23251103237271,14.749433216638863,454.0
					75.232517067343,14.749422655440867,454.0
					75.23252058774233,14.74941351916641,454.0
					75.23253391496837,14.749400736764073,454.0
					75.23254313506186,14.749393905512989,453.0
					75.23255067877471,14.749387493357062,453.0
					75.23255310952663,14.749377351254225,453.0
					75.23255981504917,14.749368717893958,453.0
					75.23257079534233,14.74935442674905,452.0
					75.23257942870259,14.749348727054894,452.0
					75.23258253000677,14.749335483647883,452.0
					75.23258621804416,14.749326976016164,452.0
					75.23258211091161,14.749318342655897,451.0
					75.23257314227521,14.749311511404812,451.0
					75.23256585001945,14.749304889701307,451.0
					75.23255076259375,14.749294831417501,451.0
					75.23254162631929,14.749288754537702,452.0
					75.23252477869391,14.749281713739038,452.0
					75.2325149718672,14.749274211935699,452.0
					75.23250474594533,14.749268470332026,453.0
					75.23248840123415,14.749260046519339,453.0
					75.23246568627656,14.749253676272929,453.0
					75.23245428688824,14.749248730950058,453.0
					75.23244582116604,14.749243534170091,453.0
					75.23242637515068,14.749241983518004,452.0
					75.23241681978106,14.749236493371427,451.0
					75.23240189999342,14.749229620210826,451.0
					75.23239343427122,14.749223166145384,451.0
					75.23238237015903,14.74921583198011,451.0
					75.23236761800945,14.749208623543382,450.0
					75.23236024193466,14.749201750382781,450.0
					75.23233928717673,14.749201163649559,451.0
					75.23232897743583,14.749200115911663,451.0
					75.23231456056237,14.74919680505991,452.0
					75.23229913786054,14.749189428985119,452.0
					75.23228354752064,14.749185238033533,453.0
					75.2322678733617,14.749193703755736,452.0
					75.23226049728692,14.749211850576103,452.0
					75.23225605487823,14.749221070669591,452.0
					75.23224834352732,14.749226938001812,452.0
					75.23224448785186,14.749236241914332,453.0
					75.23224021308124,14.749246425926685,453.0
					75.23222537711263,14.74926084280014,454.0
					75.23221347481012,14.749265746213496,454.0
					75.23220475763083,14.74928230047226,454.0
					75.23219528608024,14.749289844185114,454.0
					75.23218237794936,14.749297890812159,454.0
					75.23217022418976,14.749307236634195,455.0
					75.2321666199714,14.749320186674595,454.0
					75.23215899243951,14.749329406768084,454.0
					75.23215027526021,14.749333513900638,455.0
					75.23213627748191,14.749350403435528,454.0
					75.23212848231196,14.749360922724009,454.0
					75.23211951367557,14.749367041513324,453.0
					75.23211054503918,14.749374291859567,453.0
					75.2321164123714,14.749385984614491,452.0
					75.23210593499243,14.749374794773757,454.0
				</coordinates>
			</LinearRing>
		</outerBoundaryIs>	</Polygon></Placemark>
</Document>
</kml>
