<?xml version="1.0" encoding="UTF-8"?>
<kml xmlns="http://www.opengis.net/kml/2.2"
	xmlns:gx="http://www.google.com/kml/ext/2.2">
<Document>
	<Style id="transparentPolygon">
		<LineStyle>
<color>FF0000FF</color>
<width>4</width>
		</LineStyle>
		<PolyStyle>
			<color>7FFF0000</color>
		</PolyStyle>
	</Style>
<Placemark>
<name>arelakamapur 24 nagaraj T patil</name><visibility>1</visibility>
<description><![CDATA[<b>Area:</b><br>&nbsp;&nbsp;&nbsp;&nbsp;4040.98m²<br>&nbsp;&nbsp;&nbsp;&nbsp;0.4ha<br>&nbsp;&nbsp;&nbsp;&nbsp;0.0km²<br>&nbsp;&nbsp;&nbsp;&nbsp;43496.82ft²<br>&nbsp;&nbsp;&nbsp;&nbsp;4832.98yd²<br>&nbsp;&nbsp;&nbsp;&nbsp;0.99acre<br>&nbsp;&nbsp;&nbsp;&nbsp;0.0mi²<br><b>Distance:</b><br>&nbsp;&nbsp;&nbsp;&nbsp;191.67m<br>&nbsp;&nbsp;&nbsp;&nbsp;0.19km<br>&nbsp;&nbsp;&nbsp;&nbsp;628.86ft<br>&nbsp;&nbsp;&nbsp;&nbsp;209.62yd<br>&nbsp;&nbsp;&nbsp;&nbsp;0.11mi]]></description>
	<styleUrl>#transparentPolygon</styleUrl>	<Polygon>		<outerBoundaryIs>			<LinearRing>
				<tessellate>1</tessellate>
				<altitudeMode>clampToGround</altitudeMode>
				<coordinates>
					75.23979401,14.75629253,458.2359619140625
					75.23978119,14.75629132,458.071533203125
					75.23976883,14.75629169,458.0301513671875
					75.23975746,14.75629172,457.94989013671875
					75.23974661,14.75629094,457.86767578125
					75.2397367,14.75629136,457.9044189453125
					75.23972532,14.75629246,457.844970703125
					75.23971386,14.7562917,457.713623046875
					75.23970266,14.7562927,457.4871826171875
					75.23969069,14.75629257,457.26416015625
					75.23967838,14.75629287,457.17401123046875
					75.23966609,14.7562922,457.22808837890625
					75.23965286,14.75629139,457.0772705078125
					75.23963988,14.75628953,457.18115234375
					75.23962844,14.7562888,457.0439453125
					75.23961646,14.75628926,456.841064453125
					75.23960402,14.75629015,456.80731201171875
					75.23959232,14.75629076,456.91754150390625
					75.23957951,14.75629152,457.077880859375
					75.23956794,14.75629167,456.97998046875
					75.23955484,14.75629088,456.75244140625
					75.23954254,14.75629218,456.8140869140625
					75.23953277,14.75629096,456.721923828125
					75.23952161,14.75629077,456.80047607421875
					75.23951036,14.75629116,456.918701171875
					75.23949783,14.75629114,456.917724609375
					75.23948583,14.75629106,456.7559814453125
					75.23947424,14.75628969,456.919921875
					75.23946153,14.75628974,457.069580078125
					75.23945042,14.75628945,457.0201416015625
					75.23943975,14.75628872,456.78558349609375
					75.23942844,14.75628887,456.764892578125
					75.23941699,14.75628829,456.6583251953125
					75.23940671,14.75628985,457.0338134765625
					75.23939592,14.75628918,456.79638671875
					75.23938618,14.75628886,456.6636962890625
					75.23937621,14.75629011,456.78125
					75.23936565,14.75629041,456.63916015625
					75.23935534,14.75629279,456.77587890625
					75.23934452,14.75629398,456.6695556640625
					75.23933387,14.756295,456.653564453125
					75.23932356,14.75629564,456.53314208984375
					75.23931326,14.75629659,456.6641845703125
					75.23930388,14.75629682,456.90020751953125
					75.23929021,14.7562957,457.1361083984375
					75.23927885,14.75629631,457.01422119140625
					75.23926855,14.75629635,457.02947998046875
					75.23924862,14.75629774,456.92584228515625
					75.23923914,14.75630007,456.84783935546875
					75.23922897,14.75630031,456.9227294921875
					75.23922567,14.7563102,456.724365234375
					75.23922706,14.75631959,456.7171630859375
					75.23922501,14.7563342,456.52783203125
					75.23922325,14.75635111,456.523193359375
					75.23922325,14.75636027,456.3284912109375
					75.23922396,14.75637633,456.4267578125
					75.23922355,14.75639473,456.6260986328125
					75.23922251,14.75640376,456.7703857421875
					75.23922122,14.7564209,456.7100830078125
					75.23922073,14.75643783,457.10992431640625
					75.2392198,14.75645536,457.066650390625
					75.23922011,14.75647213,456.8509521484375
					75.23921723,14.75648857,457.0501708984375
					75.23921468,14.75650071,457.3668212890625
					75.23921596,14.75651364,456.87066650390625
					75.23921403,14.75652296,457.0145263671875
					75.23921403,14.75653201,456.8192138671875
					75.23921189,14.75654175,456.8446044921875
					75.23921002,14.75655131,456.97802734375
					75.23920884,14.75656039,457.06317138671875
					75.23920663,14.75656949,457.23577880859375
					75.23920516,14.7565872,457.1343994140625
					75.23920419,14.75659679,457.23699951171875
					75.2392013,14.75661277,457.173828125
					75.23919823,14.75662836,457.1893310546875
					75.23919505,14.75664498,457.3428955078125
					75.23919209,14.75666066,457.350341796875
					75.23919122,14.75667597,457.234375
					75.23918703,14.75669314,457.36517333984375
					75.23918471,14.75670916,457.22955322265625
					75.23918355,14.75672532,457.00830078125
					75.23918592,14.75674109,456.75262451171875
					75.23918493,14.75675015,456.675537109375
					75.23918418,14.75676702,456.8662109375
					75.23918343,14.7567763,456.6865234375
					75.23918116,14.75678564,456.6551513671875
					75.2391771,14.75680005,457.070068359375
					75.23917862,14.75680944,456.32843017578125
					75.23917757,14.75681947,456.61944580078125
					75.23917771,14.75682875,456.7176513671875
					75.23917701,14.75684732,456.45989990234375
					75.23917718,14.75685719,456.39813232421875
					75.23917706,14.7568667,456.28125
					75.23917798,14.7568841,456.4600830078125
					75.239179,14.75690206,456.58795166015625
					75.2391801,14.75691707,456.9871826171875
					75.23917918,14.75692668,456.98565673828125
					75.23918173,14.7569363,456.7122802734375
					75.23918234,14.75694624,456.49072265625
					75.23918187,14.7569637,456.24554443359375
					75.23918403,14.75698262,455.886962890625
					75.23918388,14.75699203,456.10015869140625
					75.23918546,14.75700661,456.20172119140625
					75.23919609,14.7570115,455.9476318359375
					75.23921369,14.75701072,455.8890380859375
					75.23923031,14.75700914,456.08123779296875
					75.23924722,14.75700349,456.0072021484375
					75.23925687,14.75699936,456.016357421875
					75.23926747,14.75699803,456.3062744140625
					75.23927681,14.75699614,456.3272705078125
					75.23929066,14.75698761,456.3411865234375
					75.2393064,14.75698099,456.5283203125
					75.23932244,14.75697507,456.72967529296875
					75.23933009,14.75696932,456.876953125
					75.23933704,14.7569632,456.87799072265625
					75.23934429,14.75695615,456.80419921875
					75.23935245,14.75695053,456.892578125
					75.23936148,14.75694828,456.87109375
					75.23937776,14.75694345,457.0223388671875
					75.23938706,14.75694274,456.9488525390625
					75.23940426,14.75693931,457.2529296875
					75.23942103,14.75693858,457.3037109375
					75.23943738,14.75693914,457.48358154296875
					75.2394533,14.75694196,457.678955078125
					75.23947081,14.75693963,458.1488037109375
					75.239487,14.75693675,458.2137451171875
					75.23950324,14.75693278,458.2811279296875
					75.23951984,14.75692894,458.2037353515625
					75.23953591,14.75692837,458.4249267578125
					75.23955203,14.75692954,458.5706787109375
					75.23956743,14.75692526,458.4927978515625
					75.23958422,14.75692257,458.4727783203125
					75.23959265,14.75691822,458.451171875
					75.23960977,14.75691472,458.3465576171875
					75.23962366,14.75690978,458.03240966796875
					75.23963646,14.75690405,457.9678955078125
					75.23979401,14.75629253,458.2359619140625
				</coordinates>
			</LinearRing>
		</outerBoundaryIs>	</Polygon></Placemark>
</Document>
</kml>
