<?xml version="1.0" encoding="UTF-8"?>
<kml xmlns="http://www.opengis.net/kml/2.2"
	xmlns:gx="http://www.google.com/kml/ext/2.2">
<Document>
	<Style id="transparentPolygon">
		<LineStyle>
<color>FF0000FF</color>
<width>4</width>
		</LineStyle>
		<PolyStyle>
			<color>7FFF0000</color>
		</PolyStyle>
	</Style>
<Placemark>
<name>arelakamapur kaveri patil 24</name><visibility>1</visibility>
<description><![CDATA[<b>Area:</b><br>&nbsp;&nbsp;&nbsp;&nbsp;2610.74m²<br>&nbsp;&nbsp;&nbsp;&nbsp;0.26ha<br>&nbsp;&nbsp;&nbsp;&nbsp;0.0km²<br>&nbsp;&nbsp;&nbsp;&nbsp;28101.8ft²<br>&nbsp;&nbsp;&nbsp;&nbsp;3122.42yd²<br>&nbsp;&nbsp;&nbsp;&nbsp;0.64acre<br>&nbsp;&nbsp;&nbsp;&nbsp;0.0mi²<br><b>Distance:</b><br>&nbsp;&nbsp;&nbsp;&nbsp;266.58m<br>&nbsp;&nbsp;&nbsp;&nbsp;0.26km<br>&nbsp;&nbsp;&nbsp;&nbsp;874.61ft<br>&nbsp;&nbsp;&nbsp;&nbsp;291.53yd<br>&nbsp;&nbsp;&nbsp;&nbsp;0.16mi]]></description>
	<styleUrl>#transparentPolygon</styleUrl>	<Polygon>		<outerBoundaryIs>			<LinearRing>
				<tessellate>1</tessellate>
				<altitudeMode>clampToGround</altitudeMode>
				<coordinates>
					75.23143848404288,14.751892047934234,454.0
					75.23145231418312,14.751892886124551,452.0
					75.2314686588943,14.7518972447142,451.0
					75.23148190230131,14.751900471746922,451.0
					75.23149841465056,14.751905081793666,450.0
					75.23150897584856,14.751903447322547,450.0
					75.2315188664943,14.751902190037072,450.0
					75.23153814487159,14.751908727921546,450.0
					75.23154996335506,14.751911661587656,450.0
					75.23156111128628,14.751912793144584,450.0
					75.23157770745456,14.751915349625051,450.0
					75.23159204050899,14.751917612738907,450.0
					75.23160235024989,14.751916313543916,450.0
					75.23161777295172,14.751917109824717,451.0
					75.23163336329162,14.75191555917263,451.0
					75.23164417594671,14.75191870238632,450.0
					75.23165440186858,14.751920965500176,450.0
					75.23166680708528,14.751923480071127,449.0
					75.23168181069195,14.751924611628056,449.0
					75.23169572465122,14.751925701275468,449.0
					75.23171433247626,14.751925533637404,449.0
					75.23172413930297,14.751930059865117,449.0
					75.23173998109996,14.75193236488849,449.0
					75.2317519672215,14.751936262473464,449.0
					75.23176495917141,14.751937980763614,449.0
					75.23177862167358,14.751939824782312,449.0
					75.23178775794804,14.751943470910192,449.0
					75.2318005822599,14.751947284676135,449.0
					75.23180980235338,14.75194875150919,448.0
					75.23182027973235,14.751949924975634,449.0
					75.23183293640614,14.751948416233063,449.0
					75.2318505384028,14.751951056532562,449.0
					75.23186797276139,14.75195340346545,448.0
					75.23188507184386,14.751958097331226,448.0
					75.23189831525087,14.751956085674465,448.0
					75.23190912790596,14.751959312707186,448.0
					75.23192379623652,14.751963503658772,448.0
					75.23193469271064,14.75196442566812,448.0
					75.23195221088827,14.751971676014364,448.0
					75.23196964524686,14.751974861137569,448.0
					75.23198272101581,14.751977752894163,448.0
					75.23199956864119,14.751978758722544,448.0
					75.23201633244753,14.751983662135899,449.0
					75.23203125223517,14.75198952946812,449.0
					75.23204080760479,14.751995857805014,449.0
					75.23206176236272,14.752000090666115,450.0
					75.2320765145123,14.752001934684813,450.0
					75.23208573460579,14.752004784531891,450.0
					75.23209679871798,14.752010316587985,451.0
					75.23210685700178,14.752011867240071,451.0
					75.23212839849293,14.752012537792325,451.0
					75.23213879205287,14.752016854472458,450.0
					75.2321489341557,14.752017986029387,450.0
					75.23215916007757,14.75201915949583,450.0
					75.2321700565517,14.752019201405346,450.0
					75.23218506015837,14.752026326023042,450.0
					75.23219612427056,14.752028756774962,450.0
					75.23221297189593,14.75202817004174,451.0
					75.23223107680678,14.752032654359937,451.0
					75.23224163800478,14.752035504207015,451.0
					75.232218420133,14.752031648531556,453.0
					75.23220475763083,14.752023434266448,452.0
					75.23220668546855,14.752036426216364,452.0
					75.23221305571496,14.752050675451756,454.0
					75.23221406154335,14.752069786190987,453.0
					75.23221431300044,14.752090573310852,453.0
					75.23221481591463,14.752107672393322,452.0
					75.23221305571496,14.752127034589648,452.0
					75.23220350034535,14.752129758708179,452.0
					75.23220735602081,14.752146312966943,452.0
					75.23219335824251,14.752151006832719,452.0
					75.23219101130962,14.75216425023973,452.0
					75.2321938611567,14.752184115350246,452.0
					75.2321959566325,14.752204860560596,452.0
					75.23217684589326,14.752207165583968,453.0
					75.2321798633784,14.752221498638391,453.0
					75.23217910900712,14.75223679561168,453.0
					75.2321819588542,14.752256702631712,452.0
					75.23217919282615,14.752272753976285,452.0
					75.23216846399009,14.752274178899825,453.0
					75.23216175846756,14.752282560802996,453.0
					75.23217332549393,14.75228717084974,453.0
					75.23216938599944,14.752299366518855,452.0
					75.23215346038342,14.752293918281794,452.0
					75.23211674764752,14.752285620197654,453.0
					75.23209679871798,14.75228373426944,451.0
					75.23207098245621,14.752279962413013,452.0
					75.2320659533143,14.75226391106844,453.0
					75.23205555975437,14.752261689864099,456.0
					75.23204240016639,14.752260684035718,455.0
					75.23202639073133,14.752268018200994,455.0
					75.2320022508502,14.75226562935859,454.0
					75.23198724724352,14.752263785339892,454.0
					75.23197626695037,14.752258672378957,453.0
					75.23196335881948,14.75224387831986,454.0
					75.23194827139378,14.752238430082798,454.0
					75.23193569853902,14.752244339324534,454.0
					75.23190644569695,14.752245638519526,454.0
					75.23188951425254,14.752249955199659,454.0
					75.23187744431198,14.752249494194984,453.0
					75.23186260834336,14.752245261333883,453.0
					75.23185271769762,14.75224882364273,453.0
					75.23183871991932,14.7522495361045,453.0
					75.23182078264654,14.752239645458758,454.0
					75.23180795833468,14.752236669883132,454.0
					75.2317900210619,14.7522331494838,452.0
					75.23177862167358,14.752226485870779,452.0
					75.23176177404821,14.75222120527178,452.0
					75.2317466866225,14.752217936329544,452.0
					75.23172690533102,14.7522201994434,452.0
					75.23169614374638,14.75221797823906,452.0
					75.23168357089162,14.752213954925537,451.0
					75.23167208768427,14.752211272716522,450.0
					75.23165473714471,14.752208925783634,449.0
					75.23163353092968,14.752200292423368,451.0
					75.2316203713417,14.752198574133217,452.0
					75.23160176351666,14.752197903580964,453.0
					75.23158860392869,14.752195724286139,453.0
					75.23158022202551,14.752190317958593,453.0
					75.23156345821917,14.752185079269111,451.0
					75.23155239410698,14.75218407344073,452.0
					75.23153705522418,14.75217891857028,451.0
					75.23152615875006,14.75217598490417,451.0
					75.231515429914,14.752180511131883,449.0
					75.23150595836341,14.752185121178627,448.0
					75.23149464279413,14.752181014046073,448.0
					75.2314842492342,14.752183486707509,448.0
					75.23146966472268,14.752171710133553,450.0
					75.2314517274499,14.752166639082134,450.0
					75.23143714293838,14.752157796174288,450.0
					75.23142683319747,14.752153647132218,450.0
					75.2314049564302,14.7521459357813,450.0
					75.23139221593738,14.752156287431717,451.0
					75.2313790563494,14.752153395675123,451.0
					75.23136723786592,14.75214421749115,451.0
					75.23136078380048,14.752133321017027,451.0
					75.23134477436543,14.752116934396327,453.0
					75.23135533556342,14.752110857516527,452.0
					75.23137159645557,14.75210050586611,452.0
					75.23138475604355,14.752102978527546,452.0
					75.23139221593738,14.752091285772622,451.0
					75.23140202276409,14.752081562764943,451.0
					75.2314099855721,14.752061907202005,451.0
					75.23141979239881,14.75204992108047,451.0
					75.23142306134105,14.752041413448751,451.0
					75.23142825812101,14.75202967878431,452.0
					75.23142909631133,14.752020416781306,451.0
					75.23143731057644,14.752011196687818,451.0
					75.23143781349063,14.751992588862777,452.0
					75.23144158534706,14.75197322666645,452.0
					75.23144686594605,14.751964802853763,452.0
					75.23144887760282,14.751950930804014,452.0
					75.23145181126893,14.751940872520208,452.0
					75.23145591840148,14.751926874741912,451.0
					75.23145508021116,14.751913296058774,452.0
					75.23145432583988,14.751902692951262,452.0
					75.23144870996475,14.751887270249426,452.0
					75.23145130835474,14.751877253875136,451.0
					75.23143823258579,14.751886390149593,452.0
					75.23142666555941,14.751885174773633,453.0
					75.23143127560616,14.751894688233733,450.0
					75.23145667277277,14.75190210621804,453.0
					75.23143848404288,14.751892047934234,454.0
				</coordinates>
			</LinearRing>
		</outerBoundaryIs>	</Polygon></Placemark>
</Document>
</kml>
