<?xml version="1.0" encoding="UTF-8"?>
<kml xmlns="http://www.opengis.net/kml/2.2"
	xmlns:gx="http://www.google.com/kml/ext/2.2">
<Document>
	<Style id="transparentPolygon">
		<LineStyle>
<color>FF0000FF</color>
<width>4</width>
		</LineStyle>
		<PolyStyle>
			<color>7FFF0000</color>
		</PolyStyle>
	</Style>
<Placemark>
<name>balambeda 24 rayappa setasanadi</name><visibility>1</visibility>
<description><![CDATA[<b>Area:</b><br>&nbsp;&nbsp;&nbsp;&nbsp;4256.29m²<br>&nbsp;&nbsp;&nbsp;&nbsp;0.42ha<br>&nbsp;&nbsp;&nbsp;&nbsp;0.0km²<br>&nbsp;&nbsp;&nbsp;&nbsp;45814.39ft²<br>&nbsp;&nbsp;&nbsp;&nbsp;5090.48yd²<br>&nbsp;&nbsp;&nbsp;&nbsp;1.05acre<br>&nbsp;&nbsp;&nbsp;&nbsp;0.0mi²<br><b>Distance:</b><br>&nbsp;&nbsp;&nbsp;&nbsp;191.81m<br>&nbsp;&nbsp;&nbsp;&nbsp;0.19km<br>&nbsp;&nbsp;&nbsp;&nbsp;629.3ft<br>&nbsp;&nbsp;&nbsp;&nbsp;209.76yd<br>&nbsp;&nbsp;&nbsp;&nbsp;0.11mi]]></description>
	<styleUrl>#transparentPolygon</styleUrl>	<Polygon>		<outerBoundaryIs>			<LinearRing>
				<tessellate>1</tessellate>
				<altitudeMode>clampToGround</altitudeMode>
				<coordinates>
					75.22958351,14.75432499,459.671142578125
					75.22959373,14.75432276,459.5885009765625
					75.22960677,14.75432195,459.543701171875
					75.22962144,14.75432575,459.84930419921875
					75.22963385,14.75433198,460.20220947265625
					75.22964448,14.75433749,460.39111328125
					75.22965537,14.75434184,460.40985107421875
					75.22966912,14.75435398,460.5506591796875
					75.22967795,14.7543588,460.6488037109375
					75.2296869,14.75436433,460.76861572265625
					75.22969563,14.75436804,460.83770751953125
					75.22970702,14.75437045,460.9097900390625
					75.2297185,14.75437141,461.4986572265625
					75.22972886,14.75437358,461.56689453125
					75.22973798,14.75437638,461.1387939453125
					75.22974878,14.75437529,461.6214599609375
					75.22975933,14.75437722,462.035888671875
					75.22976883,14.75437879,462.10296630859375
					75.22977846,14.75438106,461.981689453125
					75.22979545,14.75438412,461.97833251953125
					75.22980845,14.75438972,461.41015625
					75.22981839,14.75439102,461.4075927734375
					75.22982998,14.75439655,460.66748046875
					75.2298398,14.75439791,460.80828857421875
					75.22985238,14.75440218,460.50042724609375
					75.22986792,14.75440626,460.1768798828125
					75.22988732,14.7544111,459.7923583984375
					75.22989972,14.75441381,459.9215087890625
					75.22991156,14.75441778,459.6898193359375
					75.22992277,14.75442139,459.44805908203125
					75.22993273,14.75442485,459.4931640625
					75.2299434,14.75442565,459.5560302734375
					75.2299523,14.75443016,459.378662109375
					75.2299617,14.7544333,459.7010498046875
					75.22997763,14.75443914,459.7391357421875
					75.22998597,14.75444316,459.72662353515625
					75.22999498,14.75443995,459.35302734375
					75.2299925,14.75444968,459.2403564453125
					75.22999142,14.75446135,459.4688720703125
					75.22999055,14.75447215,459.2852783203125
					75.22999045,14.75448892,459.2061767578125
					75.22999054,14.75450715,458.852294921875
					75.22998669,14.75451618,458.75115966796875
					75.22998202,14.7545283,458.84088134765625
					75.229979,14.75453891,458.8192138671875
					75.22997718,14.75455024,458.54913330078125
					75.22997425,14.75456053,458.4825439453125
					75.22997169,14.75457203,458.39764404296875
					75.22996942,14.75458423,458.1876220703125
					75.22996727,14.7545956,457.91827392578125
					75.22996513,14.75460762,457.8302001953125
					75.22996358,14.75461859,457.7869873046875
					75.22996134,14.75462984,457.8624267578125
					75.22995933,14.75464163,457.7630615234375
					75.22995873,14.7546521,457.6517333984375
					75.22995749,14.75466377,457.6651611328125
					75.22995492,14.75467517,457.715576171875
					75.22995292,14.75468634,457.76043701171875
					75.22995119,14.75469812,457.7391357421875
					75.22994948,14.75470951,457.7215576171875
					75.2299484,14.75472159,457.62506103515625
					75.22994671,14.75473393,457.491455078125
					75.22994501,14.754746,457.61102294921875
					75.22994255,14.75475807,457.6427001953125
					75.22994038,14.75476939,457.65625
					75.22993855,14.75478213,457.71795654296875
					75.22993672,14.75479303,457.72357177734375
					75.22993539,14.75480423,457.62225341796875
					75.22993367,14.75481499,457.6915283203125
					75.22993075,14.75482646,457.6026611328125
					75.22992921,14.75483837,457.596435546875
					75.22992632,14.75484991,457.7451171875
					75.22992482,14.75486025,457.680419921875
					75.22992256,14.75487054,457.7030029296875
					75.2299202,14.75488022,457.73431396484375
					75.2299191,14.7548926,457.6038818359375
					75.22991775,14.75490413,457.5299072265625
					75.22991582,14.75491529,457.6181640625
					75.22991478,14.75492703,457.5679931640625
					75.22991283,14.75493914,457.4970703125
					75.22991039,14.75494943,457.45751953125
					75.229908,14.75495978,457.562255859375
					75.22990609,14.75496889,457.55572509765625
					75.22990466,14.75497903,457.698974609375
					75.22990267,14.75499096,457.670166015625
					75.22990084,14.75500252,457.7318115234375
					75.22989896,14.75501323,457.827880859375
					75.22989733,14.75502373,457.693115234375
					75.22989457,14.75503494,457.4462890625
					75.22989273,14.75504724,457.2994384765625
					75.2298911,14.75505906,457.206787109375
					75.22988812,14.75507121,457.2979736328125
					75.22988592,14.75508421,457.2083740234375
					75.22988604,14.75509663,457.13885498046875
					75.22988356,14.75510879,457.18182373046875
					75.22987192,14.75511521,457.31622314453125
					75.22986187,14.75511211,457.248779296875
					75.22985052,14.75510827,457.4561767578125
					75.22983921,14.75510451,457.5872802734375
					75.22982776,14.75509989,457.7579345703125
					75.22981775,14.75509459,457.6136474609375
					75.22980804,14.755092,457.6435546875
					75.22979752,14.75508755,457.653564453125
					75.22978611,14.75508481,457.68157958984375
					75.22977398,14.7550822,457.48907470703125
					75.22976313,14.75507866,457.6104736328125
					75.2297487,14.755072,457.5364990234375
					75.22973578,14.75506814,457.59228515625
					75.2297245,14.75506328,457.538818359375
					75.22971486,14.75506069,457.5806884765625
					75.22969516,14.75505345,457.665283203125
					75.22968308,14.75504949,457.6373291015625
					75.22967189,14.75504491,457.6715087890625
					75.22966075,14.75504119,457.5616455078125
					75.22964854,14.75503691,457.56842041015625
					75.22963677,14.75503252,457.6280517578125
					75.22962605,14.75502774,457.59814453125
					75.22961523,14.7550252,457.4964599609375
					75.22960342,14.75502121,457.54803466796875
					75.22959168,14.75501799,457.55126953125
					75.22958121,14.75501547,457.479736328125
					75.2295699,14.75501346,457.5308837890625
					75.22955764,14.75501167,457.69091796875
					75.22954579,14.75500903,457.7340087890625
					75.22953411,14.75500587,457.8253173828125
					75.22952188,14.75500362,457.7510986328125
					75.2295111,14.75500055,457.642578125
					75.22950121,14.75499713,457.3953857421875
					75.22949113,14.75499673,457.58441162109375
					75.22948079,14.75499393,457.4510498046875
					75.22946254,14.75499952,457.6881103515625
					75.22945349,14.7550018,457.8480224609375
					75.22944403,14.75500206,458.06298828125
					75.22942816,14.7549983,458.19482421875
					75.22941178,14.75499564,458.1845703125
					75.22939616,14.75499545,458.3685302734375
					75.22938015,14.7550013,458.32708740234375
					75.2293702,14.75499904,458.52471923828125
					75.2293566,14.75499504,458.44384765625
					75.22934157,14.75499217,458.3919677734375
					75.22932836,14.75498618,458.831298828125
					75.22931658,14.75498238,459.3277587890625
					75.22930916,14.75497239,459.69366455078125
					75.22929835,14.7549688,459.99578857421875
					75.22928839,14.75496647,460.2506103515625
					75.22927799,14.7549672,460.5545654296875
					75.22958351,14.75432499,459.671142578125
				</coordinates>
			</LinearRing>
		</outerBoundaryIs>	</Polygon></Placemark>
</Document>
</kml>
