<?xml version='1.0' encoding='UTF-8' standalone='yes' ?><kml xmlns="http://www.opengis.net/kml/2.2"><Document><ExtendedData><Data name="map_type"><value>4</value></Data></ExtendedData><Placemark><name>HARANAGIRI BASANAGOUDA R PATIL 2 24</name><description>Place Description</description><Point><coordinates>-122.0822035425683,37.42228990140251</coordinates></Point><Polygon><outerBoundaryIs><LinearRing><coordinates>75.7094830647111,14.743281704120008,0 75.70980526506901,14.74315406960666,0 75.71000508964062,14.74306533127442,0 75.71016568690538,14.742979629658544,0 75.7101958617568,14.74302275330185,0 75.71066860109568,14.742773517077518,0 75.71063306182623,14.74270726960882,0 75.71032829582691,14.742841607091785,0 75.71011170744896,14.74294623314697,0 75.71006141602993,14.74288073706084,0 75.70941064506769,14.74316282402416,0 75.7094830647111,14.743281704120008,0</coordinates></LinearRing></outerBoundaryIs></Polygon></Placemark></Document></kml>