<?xml version='1.0' encoding='UTF-8' standalone='yes' ?><kml xmlns="http://www.opengis.net/kml/2.2"><Document><ExtendedData><Data name="map_type"><value>4</value></Data></ExtendedData><Placemark><name>Haranagiri Shivappa K Chikkapanavar 24</name><description>Place Description</description><Point><coordinates>-122.0822035425683,37.42228990140251</coordinates></Point><Polygon><outerBoundaryIs><LinearRing><coordinates>75.71442637592554,14.752332603643792,0 75.71359254419804,14.752530469512267,0 75.71281671524048,14.752724679452188,0 75.7129142805934,14.75284302098335,0 75.71303028613329,14.752937369938776,0 75.71408674120903,14.752678315492291,0 75.71408104151487,14.75255446206849,0 75.71446627378464,14.752467894319407,0 75.71442637592554,14.752332603643792,0</coordinates></LinearRing></outerBoundaryIs></Polygon></Placemark></Document></kml>