<?xml version='1.0' encoding='UTF-8' standalone='yes' ?><kml xmlns="http://www.opengis.net/kml/2.2"><Document><ExtendedData><Data name="map_type"><value>4</value></Data></ExtendedData><Placemark><name>Haranagiri  BASANAGOUDA R Patil 24 1 kml</name><description>Place Description</description><Point><coordinates>-122.0822035425683,37.42228990140251</coordinates></Point><Polygon><outerBoundaryIs><LinearRing><coordinates>75.70821203291416,14.744315264268566,0 75.70965003222227,14.743722560123619,0 75.71041345596313,14.743442743547034,0 75.71113832294941,14.743064140699879,0 75.71078259497881,14.742842624994426,0 75.7102394476533,14.743147944514366,0 75.70955213159323,14.74341252233777,0 75.70946529507637,14.743434894712493,0 75.7079977914691,14.743997837030566,0 75.70821203291416,14.744315264268566,0</coordinates></LinearRing></outerBoundaryIs></Polygon></Placemark></Document></kml>