<?xml version='1.0' encoding='UTF-8' standalone='yes' ?><kml xmlns="http://www.opengis.net/kml/2.2"><Document><ExtendedData><Data name="map_type"><value>4</value></Data></ExtendedData><Placemark><name>Haranagiri Mahalingsawmi S Hirmath 24 1</name><description>Place Description</description><Point><coordinates>-122.0822035425683,37.42228990140251</coordinates></Point><Polygon><outerBoundaryIs><LinearRing><coordinates>75.7061567902565,14.750146350624147,0 75.70757433772087,14.749599608626305,0 75.70937812328339,14.748907380475766,0 75.70917025208473,14.748438220379112,0 75.70665266364813,14.749313639231028,0 75.70654101669788,14.749348980140358,0 75.7061168923974,14.750080114179022,0 75.7061567902565,14.750146350624147,0</coordinates></LinearRing></outerBoundaryIs></Polygon></Placemark></Document></kml>