<?xml version='1.0' encoding='UTF-8' standalone='yes' ?><kml xmlns="http://www.opengis.net/kml/2.2"><Document><ExtendedData><Data name="map_type"><value>4</value></Data></ExtendedData><Placemark><name>Haranagiri Gangamma G Choudapanavar</name><description>Place Description</description><Point><coordinates>-122.0822035425683,37.42228990140251</coordinates></Point><Polygon><outerBoundaryIs><LinearRing><coordinates>75.71429025381804,14.753214166754596,0 75.71351710706949,14.753440474031079,0 75.71325458586216,14.7531314899688,0 75.71331426501274,14.753085305399951,0 75.71366865187883,14.752998089415797,0 75.71414306759834,14.752886880879734,0 75.71429025381804,14.753214166754596,0</coordinates></LinearRing></outerBoundaryIs></Polygon></Placemark></Document></kml>