<?xml version="1.0" encoding="UTF-8"?>
<kml xmlns="http://www.opengis.net/kml/2.2" xmlns:gx="http://www.google.com/kml/ext/2.2" xmlns:kml="http://www.opengis.net/kml/2.2" xmlns:atom="http://www.w3.org/2005/Atom">
<Document>
	<name>kotihal Manju banakar24</name>
	<visibility>0</visibility>
	<Style id="transparentPolygon">
		<LineStyle>
			<color>ff0000ff</color>
			<width>4</width>
		</LineStyle>
		<PolyStyle>
			<color>7fff0000</color>
		</PolyStyle>
	</Style>
	<Placemark id="062347DEDB3DA0491776">
		<name>kotihal manju banakar 24</name>
		<description><![CDATA[<b>Area:</b><br>&nbsp;&nbsp;&nbsp;&nbsp;4673.49m²<br>&nbsp;&nbsp;&nbsp;&nbsp;0.46ha<br>&nbsp;&nbsp;&nbsp;&nbsp;0.0km²<br>&nbsp;&nbsp;&nbsp;&nbsp;50305.04ft²<br>&nbsp;&nbsp;&nbsp;&nbsp;5589.44yd²<br>&nbsp;&nbsp;&nbsp;&nbsp;1.15acre<br>&nbsp;&nbsp;&nbsp;&nbsp;0.0mi²<br><b>Distance:</b><br>&nbsp;&nbsp;&nbsp;&nbsp;370.38m<br>&nbsp;&nbsp;&nbsp;&nbsp;0.37km<br>&nbsp;&nbsp;&nbsp;&nbsp;1215.16ft<br>&nbsp;&nbsp;&nbsp;&nbsp;405.05yd<br>&nbsp;&nbsp;&nbsp;&nbsp;0.23mi]]></description>
		<styleUrl>#transparentPolygon</styleUrl>
		<Polygon>
			<outerBoundaryIs>
				<LinearRing>
					<tessellate>1</tessellate>
					<coordinates>
						75.67729,14.479005,450.4 75.677285,14.478995,450.4 75.67727666666666,14.47898666666667,450.4 75.67725833333334,14.47896666666667,446 75.67725,14.47897333333333,444.2 75.677255,14.47896166666666,443.7 75.67725666666666,14.47895166666667,444.6 75.67725166666668,14.47894,444.5 75.67724666666666,14.47893166666666,444.8 75.677245,14.47891333333333,444.9999999999999 75.67724833333334,14.47890333333334,445.4999999999999 75.677255,14.47888833333334,446 75.677255,14.47887833333333,446.3 75.67725166666668,14.47886666666667,446.8999999999999 75.67725,14.47885666666667,447 75.677255,14.47884,447.4 75.67725666666666,14.47882833333333,447.5000000000001 75.67724666666666,14.47882,447.8 75.67724,14.47880166666667,447.9 75.67723666666667,14.47879,448.2 75.67723666666667,14.47878,448.5 75.67723833333334,14.47876833333333,448.6 75.67723500000001,14.47875,448.4 75.67723166666666,14.47874,448.5 75.67722666666667,14.47873166666667,448.6 75.67722166666667,14.47871666666667,448.5 75.67723333333333,14.47870166666667,448.1 75.677245,14.47869333333334,448.2 75.677255,14.47868666666667,447.9999999999999 75.67726500000001,14.47868333333333,447.8 75.67727499999999,14.47868,447.5000000000001 75.677285,14.47867666666667,447.2 75.67729666666668,14.47867166666666,446.8999999999999 75.67730833333333,14.47866166666667,446.8 75.67731833333333,14.478655,446.3999999999999 75.67732666666667,14.47864833333333,446.3 75.677335,14.47864166666667,446.2 75.67734666666666,14.478635,446.2 75.67735833333333,14.47862833333333,446.1000000000001 75.67737000000001,14.47862166666667,446.1000000000001 75.67738166666666,14.47861666666667,446.1000000000001 75.67739166666667,14.47861,446.1000000000001 75.67740499999999,14.47860666666667,445.9 75.67741833333334,14.47860333333334,446.1000000000001 75.67742833333334,14.47860166666667,446.1000000000001 75.67743833333334,14.47859833333333,446.2 75.67744999999999,14.478595,446.3999999999999 75.67746000000001,14.47859333333333,446.8 75.67747333333334,14.47859333333333,447 75.67748333333334,14.47858833333333,447.2 75.67749666666667,14.47858333333333,447.3 75.67750833333334,14.47858333333333,447.3 75.67751666666666,14.47857833333333,447 75.677525,14.47857166666667,447 75.67753833333333,14.47856833333333,447.1 75.67755666666667,14.47856,447.1 75.67757833333333,14.47854833333333,447 75.67759333333333,14.478545,446.7 75.67760666666666,14.47854,446.8 75.67761999999999,14.47853333333333,447 75.67762999999999,14.47853,447.2 75.67764000000001,14.478525,447.4 75.67764833333334,14.47851833333333,447.6 75.67765833333333,14.47851166666667,447.8 75.67767000000001,14.47850666666667,447.6 75.67768,14.47850166666667,447.8 75.67768833333334,14.47849666666667,447.9 75.67770666666667,14.47849166666666,448.1 75.67771500000001,14.47848666666667,447.8 75.677725,14.47848,447.4 75.677735,14.478475,447.4 75.677745,14.47847,447.3 75.67775666666667,14.47846666666667,447.3 75.67776833333333,14.47846666666667,447.3 75.67778,14.47846333333333,447.3 75.67778666666666,14.47845666666667,447.2 75.67779666666667,14.47845166666667,447.2 75.67780833333333,14.478445,447.2 75.67781833333333,14.47843833333333,447.2 75.67782666666668,14.47843166666667,447 75.67783833333333,14.47842666666667,446.8 75.67785166666665,14.47842166666667,446.8 75.67786166666666,14.47841666666667,446.3999999999999 75.67787166666668,14.47841166666667,446.3 75.67788166666666,14.47840333333333,446.1000000000001 75.67789333333333,14.47839666666667,445.7 75.67790333333333,14.47839333333333,445.2999999999999 75.677915,14.47838833333333,445.1 75.67792666666666,14.47838166666667,444.7000000000001 75.67793666666667,14.47837666666667,444.9999999999999 75.67794833333333,14.47837166666666,445.1 75.67795833333334,14.47836833333333,444.9999999999999 75.67796833333334,14.47836166666667,444.9 75.67798166666667,14.47835333333333,444.9999999999999 75.67798999999999,14.47834666666667,445.1 75.67799833333333,14.47834166666667,445.1 75.678005,14.478335,445.2 75.67802166666667,14.478325,444.9999999999999 75.67803666666667,14.47831666666667,444.8 75.67804333333333,14.47831,444.9 75.678055,14.47830166666667,444.9999999999999 75.67806333333333,14.47829333333333,445.1 75.67807333333333,14.47829,445.2 75.67808333333333,14.47828666666667,445.2 75.678095,14.47828333333333,444.9999999999999 75.67810666666666,14.47828,444.9 75.67811833333333,14.47828,444.8 75.67813333333334,14.478275,445.2 75.67814,14.47826833333333,445.2999999999999 75.67815,14.47826333333333,445.7 75.67815999999999,14.47825666666667,446.2 75.67817666666666,14.47825,446.6 75.678195,14.47824333333333,446.8999999999999 75.67820499999999,14.47823833333334,447.1 75.67821666666667,14.478235,447.2 75.67823166666668,14.478225,447.1 75.67824,14.47821833333333,447 75.67824833333334,14.47821333333334,446.8999999999999 75.67825833333333,14.47820666666667,446.7 75.67827833333334,14.47820166666667,446.3999999999999 75.67828833333333,14.4782,446.6 75.67829499999999,14.47819333333333,446.8999999999999 75.67830666666667,14.47819,446.7 75.67831833333334,14.47818666666667,446.5 75.67833166666667,14.47818166666667,446.3999999999999 75.67834500000001,14.47817666666666,446.1000000000001 75.678355,14.478175,445.7999999999999 75.678365,14.47817166666667,445.7 75.678375,14.47816666666667,445.4 75.67838499999999,14.47816333333333,445.1 75.67839499999999,14.47816333333333,444.9 75.67840666666666,14.47816333333333,444.6 75.67841166666668,14.47817166666667,444.3999999999999 75.678415,14.47818166666667,444.3 75.678425,14.4782,444.6 75.67843166666667,14.47820666666667,444.7000000000001 75.67843666666666,14.478215,444.8 75.67843833333333,14.478225,444.9999999999999 75.67843999999999,14.478235,444.9999999999999 75.678445,14.47824333333333,444.9999999999999 75.67845000000001,14.478255,445.2 75.67845333333334,14.478265,445.2999999999999 75.67846166666666,14.47827333333333,445.2 75.67846833333333,14.47828,445.2 75.67847499999999,14.47829,444.9999999999999 75.67848499999999,14.47830166666667,445.1 75.67849333333334,14.47831,445.1 75.67849833333334,14.47832,444.7000000000001 75.67849,14.47832666666667,444.7000000000001 75.67847833333333,14.47833166666667,444.6 75.67846833333333,14.47834166666667,444.7000000000001 75.67845833333334,14.478355,444.7000000000001 75.67845000000001,14.47836166666667,444.5 75.67843999999999,14.47836666666667,444.3 75.67842999999999,14.47837166666666,444.1 75.67842,14.47838,444.1 75.67841,14.47838833333333,443.7 75.67840166666666,14.4784,443.7 75.6784,14.47841333333333,443.6 75.67839833333333,14.47842333333334,443.8 75.67839166666666,14.478435,443.8999999999999 75.67838333333334,14.47844333333333,444.2 75.67837333333334,14.47844833333333,444.5 75.67836666666668,14.47845666666667,444.7000000000001 75.67835833333334,14.478465,445.1 75.67834833333333,14.47847333333333,445.4 75.67833999999999,14.47848333333333,445.4999999999999 75.67833,14.47849333333333,445.7 75.67832166666668,14.4785,445.7999999999999 75.67831333333334,14.47851,445.6 75.67830166666666,14.47851666666667,445.4 75.67829333333334,14.47852333333333,445.2999999999999 75.67828,14.47853,445.6 75.67826666666666,14.47853333333333,445.2999999999999 75.67825666666666,14.47853833333333,445.4999999999999 75.67824833333334,14.478545,445.4999999999999 75.67823833333334,14.47854833333333,445.2999999999999 75.67822833333334,14.47855833333333,445.2 75.67822,14.47856666666666,444.9 75.67820833333333,14.478575,444.9 75.678195,14.478585,444.9 75.67818333333334,14.47859333333333,444.9999999999999 75.67817166666667,14.4786,445.2999999999999 75.67815999999999,14.47860833333333,444.9999999999999 75.67815,14.478615,444.9 75.67813833333334,14.47862,444.7000000000001 75.67812666666667,14.47862666666667,444.6 75.67811333333334,14.47863333333333,444.7000000000001 75.67809833333334,14.47863833333333,444.8 75.67808666666666,14.478645,444.8 75.67807666666666,14.47865333333333,444.9 75.678065,14.47865833333333,444.9999999999999 75.67805166666668,14.478665,445.2 75.67804166666666,14.47867166666666,445.2 75.67803000000001,14.47867666666667,445.2 75.67802,14.47868166666667,445.1 75.67800166666666,14.47869166666667,444.8 75.67799333333333,14.47869833333333,444.3 75.67798333333333,14.47870333333333,444.1 75.67797166666666,14.47870833333334,444.1 75.67796166666668,14.47871166666667,443.8 75.67795,14.47871833333333,443.7 75.67793833333333,14.47872666666667,443.3 75.67792666666666,14.47873333333333,443.1 75.67791833333334,14.47874,442.9 75.67790833333333,14.478745,442.9 75.67789666666665,14.47874833333333,443.1 75.677885,14.47874833333333,443.2 75.677875,14.47875,443.6 75.67786500000001,14.47875166666667,444.1 75.67785499999999,14.47875333333334,444 75.67784333333334,14.478755,444.2 75.67783,14.478755,444.6 75.67782000000001,14.47875666666667,444.8 75.67780500000001,14.47875833333333,444.9999999999999 75.67779166666666,14.478765,445.2999999999999 75.67778,14.47876666666667,445.4 75.67776666666667,14.47877,445.4999999999999 75.67775833333333,14.47877666666667,445.6 75.67774833333333,14.47878166666666,445.6 75.67773000000001,14.47879,445.7999999999999 75.67771999999999,14.478795,445.9 75.677705,14.47880166666667,446.3 75.67769,14.47880833333333,446.3999999999999 75.67768333333333,14.478815,446.8999999999999 75.67766666666667,14.47882666666666,446.8 75.67765666666666,14.47883166666667,446.3 75.677645,14.47883666666667,446 75.67763166666667,14.47883833333333,445.7999999999999 75.677615,14.478845,445.2999999999999 75.67760666666666,14.47885,445.1 75.67759833333334,14.47885666666667,444.9 75.67757833333333,14.478865,444.9 75.67756833333333,14.47887166666666,444.5 75.67755666666667,14.47887833333333,444.3 75.67754499999999,14.47888333333333,444 75.67753166666667,14.47888833333334,443.8 75.677525,14.47889666666667,443.2 75.677515,14.478905,442.9 75.67750333333333,14.47891166666667,442.7999999999999 75.67748833333333,14.47891833333333,442.9 75.67747666666668,14.47892166666667,443 75.67746833333334,14.47892833333333,442.7999999999999 75.67745833333333,14.47893166666666,442.7999999999999 75.67744666666667,14.478935,442.9 75.67743166666668,14.47893666666667,443.1 75.67741666666667,14.478935,443.3 75.67740499999999,14.47893833333333,443.5 75.67739333333334,14.47894166666666,443.8999999999999 75.67738166666666,14.47894833333334,444 75.67737166666667,14.478955,443.5 75.67736166666667,14.478955,443.3 75.67735166666667,14.47895833333333,443.6 75.67734166666668,14.47895666666667,444 75.67732500000001,14.47896,444.5 75.67730666666667,14.47896166666666,445.1 75.67729666666668,14.47896666666667,445.2 75.67728666666667,14.47898333333333,445.4 75.67728666666667,14.47897333333333,445.1 75.677285,14.47898333333333,445.4 75.67728333333334,14.47899666666667,445.7999999999999 75.67728166666667,14.47900833333333,447.2 75.67728000000001,14.47901833333333,450.2 75.67727499999999,14.47902666666667,451.2 75.67727166666667,14.47903833333333,452.3 75.67726333333333,14.47905,453.7 75.67725333333333,14.47905833333333,454 75.67724666666666,14.47906666666666,453.6 75.67729,14.479005,450.4 
					</coordinates>
				</LinearRing>
			</outerBoundaryIs>
		</Polygon>
	</Placemark>
</Document>
</kml>
