<?xml version="1.0" encoding="UTF-8"?>
<kml xmlns="http://www.opengis.net/kml/2.2" xmlns:gx="http://www.google.com/kml/ext/2.2" xmlns:kml="http://www.opengis.net/kml/2.2" xmlns:atom="http://www.w3.org/2005/Atom">
<Document>
	<name>Kotihal Rekha P Magod 24</name>
	<visibility>0</visibility>
	<Style id="transparentPolygon">
		<LineStyle>
			<color>ff0000ff</color>
			<width>4</width>
		</LineStyle>
		<PolyStyle>
			<color>7fff0000</color>
		</PolyStyle>
	</Style>
	<Placemark id="0F8715399C3D9C219058">
		<name>kotihal Rekha P Magod 24 </name>
		<description><![CDATA[<b>Area:</b><br>&nbsp;&nbsp;&nbsp;&nbsp;10500.61m²<br>&nbsp;&nbsp;&nbsp;&nbsp;1.05ha<br>&nbsp;&nbsp;&nbsp;&nbsp;0.01km²<br>&nbsp;&nbsp;&nbsp;&nbsp;113027.73ft²<br>&nbsp;&nbsp;&nbsp;&nbsp;12558.63yd²<br>&nbsp;&nbsp;&nbsp;&nbsp;2.59acre<br>&nbsp;&nbsp;&nbsp;&nbsp;0.0mi²<br><b>Distance:</b><br>&nbsp;&nbsp;&nbsp;&nbsp;788.87m<br>&nbsp;&nbsp;&nbsp;&nbsp;0.78km<br>&nbsp;&nbsp;&nbsp;&nbsp;2588.16ft<br>&nbsp;&nbsp;&nbsp;&nbsp;862.72yd<br>&nbsp;&nbsp;&nbsp;&nbsp;0.49mi]]></description>
		<styleUrl>#transparentPolygon</styleUrl>
		<Polygon>
			<outerBoundaryIs>
				<LinearRing>
					<tessellate>1</tessellate>
					<coordinates>
						75.67601186,14.47675864,457.6622314453124 75.67600305000001,14.47675538,457.7755126953125 75.67602299000001,14.47676309,458.5447998046874 75.67603074,14.47676834,458.3433227539062 75.6760419,14.47677226,459.220458984375 75.67605184999999,14.4767733,459.4769287109374 75.67606093000001,14.47676907,459.6852416992188 75.67607038,14.4767623,460.0975341796874 75.67608018,14.47675594,459.8966674804687 75.67608901,14.47674917,460.096923828125 75.67609853,14.47674286,460.6854248046875 75.67610902,14.47673768,460.6253662109374 75.67611955,14.47673231,460.515869140625 75.67613024000001,14.47672801,460.1517333984375 75.67614100999999,14.47672374,460.3165283203125 75.67615205,14.47671916,460.537841796875 75.67616331000001,14.47671533,460.3720703125001 75.67617461,14.47671102,460.1312866210938 75.67618616,14.47670755,459.8333740234375 75.67619799000001,14.47670349,459.7791748046876 75.67620983,14.47669886,459.6976318359375 75.67622143,14.47669453,459.4497680664062 75.67623276,14.47669081,459.0999755859376 75.67624489000001,14.47668658,458.7784423828125 75.67625631,14.47668267,458.4598388671875 75.67626814,14.47668091,458.4431152343749 75.67627932000001,14.47667828,458.0662841796876 75.67629018,14.47667399,457.7844238281251 75.67630087000001,14.47666862,457.70751953125 75.6763122,14.47666327,457.8883666992188 75.67632322999999,14.47665659,457.505126953125 75.67633382,14.47665055,456.9603271484375 75.67634404,14.47664453,456.6251831054688 75.67635448,14.47663882,457.0288696289062 75.67636306999999,14.47663337,456.7867431640625 75.67637246,14.47662728,456.5946044921875 75.67638297000001,14.47662178,456.111328125 75.67639272,14.47661731,456.0574951171874 75.67640356,14.47661549,456.184326171875 75.67641421,14.47661275,455.8629150390624 75.67643176999999,14.47660517,456.305419921875 75.67644138999999,14.4766033,455.9861450195312 75.67645192000001,14.47660464,455.7834472656249 75.67646218,14.47660994,455.4456176757812 75.67647153,14.47661785,455.7122802734374 75.67648056,14.47662386,455.78173828125 75.67649014,14.47663352,455.955810546875 75.67649543,14.47664561,455.2880859375 75.67649852,14.47665711,456.186767578125 75.67650094,14.47666875,456.0042724609375 75.67650386,14.47668511,456.1033935546875 75.67649611,14.47669382,455.9146728515624 75.67648993,14.47670075,455.5087890624999 75.67648671000001,14.47671157,455.8698120117187 75.67648551000001,14.47672108,455.1243286132812 75.67648389,14.47673241,455.4491577148438 75.67648049,14.47674304,456.8798217773438 75.676474,14.4767498,457.2179565429688 75.67646564,14.47675858,457.1995849609374 75.67645915999999,14.47676641,457.6771240234374 75.67645561,14.47678341,457.1105346679688 75.67646773,14.47679453,457.6495361328125 75.67646636000001,14.4768041,457.1988525390625 75.67646581,14.47681732,457.7210693359374 75.67646354,14.47683339,458.221435546875 75.67646085,14.47684311,458.268310546875 75.67646085,14.47685403,458.5578613281251 75.67645966000001,14.47686396,458.5205078125 75.67645887,14.47687333,458.2918701171874 75.67645726000001,14.47688245,458.4049682617188 75.67645569,14.47689317,458.3503417968749 75.67645837000001,14.47690545,458.8135375976562 75.67646455000001,14.47691823,458.7550048828124 75.67647181,14.47693098,459.08935546875 75.67647706,14.4769468,459.2155761718751 75.6764692,14.47695771,460.0689697265624 75.67645903,14.47696151,459.8679809570312 75.67644701,14.47696291,459.8973999023438 75.67643384,14.4769651,459.98486328125 75.67642198999999,14.47696726,459.8134765625 75.67641059,14.47696925,459.8499755859375 75.67639979,14.47697267,460.1458740234375 75.67638816,14.4769757,460.422119140625 75.67637353000001,14.4769793,460.4926147460938 75.67635919,14.47698471,460.3021240234375 75.67634744999999,14.47698919,460.667724609375 75.67633725,14.4769896,460.5779418945312 75.67632618,14.4769901,460.3216552734374 75.67631162000001,14.47698989,461.1358032226562 75.6763005,14.47699534,461.5068359374999 75.67629056,14.47699943,461.2950439453125 75.67627979,14.4770037,461.07177734375 75.67626885999999,14.47700731,460.8027954101562 75.67625786000001,14.47701022,460.687744140625 75.67624730999999,14.47701424,460.3270874023438 75.67623635,14.47701689,460.2025146484375 75.67622554,14.47702026,460.1060791015624 75.67621412,14.47702396,459.7813720703124 75.67620304,14.47702724,459.5292358398438 75.67619204,14.47703067,459.4542236328126 75.67618084999999,14.47703354,459.2637329101562 75.67616913000001,14.47703558,459.3580322265625 75.67615782999999,14.47703776,459.569091796875 75.67614706000001,14.47704033,459.4911499023437 75.67613623,14.47704293,459.5660400390625 75.67612568,14.47704671,459.7894287109375 75.67611411,14.47705007,459.5479736328126 75.67610208000001,14.47705322,459.171142578125 75.67608918000001,14.47705482,459.1634521484375 75.67607604,14.47705615,459.012939453125 75.67606393,14.47705704,458.9191284179688 75.6760534,14.47705714,458.6672363281249 75.67604353999999,14.47705728,458.4891357421875 75.67602658,14.47706274,459.1439208984374 75.67602672,14.47707531,459.2447509765624 75.67602031,14.47708433,459.6746826171875 75.67600385999999,14.47709063,460.4912109375 75.67599473999999,14.47709471,460.996337890625 75.67598542,14.4770984,460.8795776367187 75.67597356,14.47709911,461.0435180664062 75.67596093,14.4771018,461.1617431640624 75.67594904000001,14.47710468,461.5156249999999 75.67593819,14.47710804,461.380126953125 75.67592753,14.4771115,461.5377197265624 75.67591722,14.47711536,461.5357666015624 75.67590633,14.47711926,461.5933227539063 75.6758954,14.47712352,461.5198974609375 75.67588477,14.47712788,461.4795532226562 75.67587444,14.47713229,461.589111328125 75.67586476,14.47713738,461.6210327148438 75.67585543,14.4771412,461.3710937499999 75.67584597,14.47714586,461.4071044921874 75.67583637,14.4771504,461.3245239257812 75.67582707,14.47715417,461.1098632812499 75.67581753,14.4771579,461.03515625 75.67580882,14.47716146,461.0047607421875 75.67579988,14.47716549,461.0679931640624 75.67579081,14.47716923,461.0230712890624 75.67578023999999,14.47717345,460.974609375 75.67576972000001,14.47717788,460.8293457031249 75.67576016,14.47718248,460.7149047851562 75.67575063,14.47718749,460.4002075195312 75.67574014,14.47719241,460.079833984375 75.67572901,14.47719576,460.4154663085938 75.67571882999999,14.47719906,460.7100219726562 75.67570867000001,14.47720333,460.5987548828125 75.67569876,14.47720772,460.717529296875 75.67568879,14.4772118,460.608154296875 75.67567826,14.47721629,460.9070434570312 75.67566813000001,14.47722005,461.0479736328125 75.67565844000001,14.47722466,461.0822753906249 75.67564876,14.47722883,461.473388671875 75.67563894,14.47723335,461.3748779296875 75.67562882,14.47723739,461.5576782226562 75.67561851000001,14.47724178,461.5728759765624 75.67560868,14.47724595,461.3609619140625 75.67559855,14.47724958,461.1290283203125 75.67558848,14.47725344,461.2015380859375 75.67557884,14.47725808,460.7339477539062 75.67556980000001,14.47726242,460.66357421875 75.67556051,14.47726547,460.7432861328125 75.67554993,14.47726996,460.37109375 75.67553961,14.47727429,460.21630859375 75.67552935000001,14.47727797,459.9940185546875 75.67551971,14.47728211,459.7479858398438 75.67550937999999,14.47728615,459.611328125 75.67549936,14.47728988,459.8189697265625 75.67548892000001,14.47729382,459.8966674804687 75.67547838999999,14.477298,460.0488281249999 75.67546858,14.47730218,459.9682617187499 75.67545898,14.47730699,459.676513671875 75.67544866999999,14.47731088,459.8616333007812 75.67543897,14.47731527,460.024169921875 75.67542964,14.47731968,459.8968505859374 75.67541873,14.47732448,460.1680908203125 75.67540791,14.47732857,460.5111083984374 75.67539761,14.47733224,460.1298217773438 75.67538620000001,14.47733664,460.3931884765625 75.67537483,14.47734086,460.2071533203124 75.67536355999999,14.47734548,459.9602661132812 75.67535230999999,14.4773506,460.4448242187499 75.67534130999999,14.47735573,460.46337890625 75.67533127,14.47736013,460.5032958984374 75.67532035000001,14.47736486,460.5087890625 75.67530886,14.47737008,460.3507080078124 75.67529810000001,14.47737476,460.3624267578125 75.67528769,14.47737819,460.7586669921875 75.67527722,14.47738301,461.0242919921874 75.67526675000001,14.47738786,460.8892211914062 75.67525593000001,14.47739289,460.9683837890625 75.67524555999999,14.47739811,460.8422851562499 75.67523512,14.47740265,461.0419921875 75.67522374000001,14.4774073,461.1275634765625 75.67521309,14.47741157,460.9226074218749 75.67520302,14.47741714,461.2889404296875 75.6751926,14.47742189,461.539794921875 75.6751819,14.47742621,461.4686279296875 75.67517121,14.47743017,461.3152465820312 75.67515991,14.47743419,461.1459960937499 75.67514898,14.47743909,461.1381835937501 75.6751383,14.47744371,460.8844604492188 75.67512824000001,14.4774494,460.9385986328125 75.67511974,14.47745608,460.4349365234375 75.67510928999999,14.47746102,459.9979248046874 75.67509843000001,14.47746597,459.7588500976562 75.67508687999999,14.47747068,459.8045654296875 75.675076,14.47747431,459.4906005859374 75.67506517,14.47747783,459.6454467773438 75.67505445,14.47748208,459.8407592773438 75.67504346,14.47748589,459.6983642578125 75.67503278,14.47749075,459.504150390625 75.67502197,14.47749508,459.3107910156249 75.67501120999999,14.47749957,459.1021728515624 75.67500097999999,14.47750392,458.873046875 75.67499044,14.47750837,459.02734375 75.67498018000001,14.47751305,459.2030029296874 75.67497014,14.47751727,459.450439453125 75.67495993999999,14.47752049,459.6124877929688 75.6749488,14.47752442,459.7663574218749 75.67493865,14.47752768,459.6258544921875 75.67492844,14.47753125,459.6708984375001 75.67491772,14.47753522,459.9566650390625 75.67490752,14.47754027,459.890869140625 75.67489664,14.47754472,459.7546997070312 75.67488589,14.47754885,459.3762817382812 75.67487552999999,14.47755356,459.3914794921875 75.67486538,14.47755804,459.379638671875 75.67485464000001,14.47756194,459.34912109375 75.67484388,14.47756603,459.6444091796875 75.67483393000001,14.47756987,459.3880615234375 75.67482373999999,14.47757398,459.492919921875 75.67481312,14.47757784,459.9193115234375 75.67480286,14.4775821,460.11083984375 75.67479147,14.47758739,460.4782104492188 75.67478044000001,14.47759162,460.1775512695312 75.67476981,14.47759627,460.3820190429688 75.67475918,14.47760042,460.1878662109375 75.67474872,14.47760331,460.1768798828126 75.67473859,14.47760744,460.1966552734375 75.67472841,14.47761151,460.179931640625 75.67471799,14.4776153,460.0343017578124 75.67470771000001,14.47761937,460.0240478515625 75.67469766000001,14.47762262,459.9498291015625 75.67468809,14.4776263,459.9049072265625 75.67467882,14.47763018,460.0509033203125 75.67466813,14.47763473,460.08935546875 75.67465844,14.47763884,459.8021240234374 75.67464927,14.47764339,459.6407470703125 75.67463858000001,14.47764744,459.40673828125 75.67462738,14.47765176,459.2208251953125 75.67461727,14.4776554,459.2157592773438 75.67460752,14.47765913,459.0372314453125 75.67459759,14.47766342,459.0185546875 75.67458659,14.47766717,459.0922241210938 75.67457662,14.47767141,459.3966674804687 75.67456686,14.4776756,459.2576293945312 75.67455681,14.47767972,459.6492919921876 75.67454642,14.4776837,459.6776123046875 75.67453494999999,14.47768638,459.8265380859375 75.67452401,14.47768978,459.70458984375 75.67451385,14.47769414,460.0097045898438 75.67450261,14.4776986,459.697265625 75.67449151,14.47770319,459.7295532226562 75.67448072000001,14.47770797,460.0068359375 75.67446943,14.47771232,459.8804931640626 75.67445801,14.47771693,459.7938232421876 75.67444632,14.4777214,459.9013671875 75.67443569,14.47772601,460.1639404296874 75.67442517000001,14.47772974,459.9874877929688 75.67441382,14.47773409,460.114013671875 75.67440507000001,14.47773716,459.9816894531251 75.674395,14.47774114,459.7910766601562 75.67438500999999,14.4777449,460.1682739257812 75.67437479,14.47774931,460.0915527343749 75.67436523000001,14.47775206,459.89990234375 75.67435562,14.47775621,459.7273559570312 75.67434609999999,14.47775933,459.560791015625 75.67433721,14.47776303,459.7970581054688 75.67432779000001,14.47776695,459.833251953125 75.67431723,14.47777079,459.875732421875 75.67430731,14.47777588,460.2001953124999 75.67429774999999,14.47778139,460.1182861328125 75.67428762999999,14.47778583,459.9063110351562 75.67427692,14.47778904,460.3077392578124 75.67425885999999,14.47779501,460.6396484374999 75.67425016,14.4777994,460.5814819335938 75.67424109,14.47780353,460.5478515625 75.67423098,14.47780799,460.5220336914062 75.67422049,14.47781202,460.4837036132812 75.67420997000001,14.47781659,460.462890625 75.67420067,14.47782146,460.4476318359375 75.67419098000001,14.47782637,460.470947265625 75.67418159,14.47783108,460.3369140624999 75.67417051,14.47783577,460.2744750976562 75.67415999000001,14.47784013,460.1942138671875 75.67415004999999,14.47784452,460.309326171875 75.67413978,14.47784962,460.470458984375 75.67412971,14.47785473,460.4456787109374 75.67411958,14.4778601,460.3000488281249 75.67410938,14.47786458,460.202392578125 75.67409852,14.47786813,460.1373291015625 75.6740879,14.47787307,460.0582275390625 75.67407745,14.47787765,459.96240234375 75.67406746,14.47788198,459.8577270507812 75.67405805,14.47788614,459.7722167968751 75.67404691999999,14.47789065,459.7102661132812 75.67403691,14.47789495,459.8131713867188 75.67402688999999,14.47789947,459.5162353515625 75.67401685999999,14.47790384,459.7864990234376 75.67400698,14.47790863,459.661865234375 75.67399654,14.47791296,459.6409912109375 75.67398749,14.4779169,459.646484375 75.67397837999999,14.47792051,459.3898925781249 75.67396843,14.47792532,459.478515625 75.67395849,14.47793022,459.4437866210938 75.67394858999999,14.47793395,459.3345947265625 75.67393822,14.47793838,459.1907348632812 75.67392804000001,14.47794288,459.53076171875 75.67391914,14.47794644,459.3951416015625 75.67390905000001,14.47795042,459.3419799804688 75.67389928999999,14.47795441,459.2316894531249 75.67388984,14.47795756,459.3526611328125 75.67387988,14.47796151,459.1647949218751 75.67386983999999,14.4779656,459.5235595703125 75.67386066,14.47796989,459.3592529296875 75.67385231,14.47797402,459.1318359375 75.67384339,14.47797752,459.5742797851562 75.67383441,14.47798121,459.4256591796874 75.67382472,14.47798568,459.2315673828124 75.6738151,14.47799006,459.2059326171875 75.67379672,14.47799721,459.37744140625 75.67378721999999,14.47799953,459.3721923828125 75.67377802,14.47800326,459.2082519531251 75.67376894,14.47800668,459.4195556640624 75.67375905999999,14.47801035,459.1943359374999 75.67374949000001,14.47801427,459.3873291015625 75.67374031,14.4780175,459.5872802734375 75.67373107,14.47802102,459.8070068359375 75.67372198,14.4780244,459.6274414062501 75.67371283,14.47802831,459.5020751953125 75.67370319,14.47803189,459.4325561523438 75.67369348,14.47803621,459.1449584960937 75.67368405000001,14.47804014,459.1093749999999 75.67367502,14.47804459,458.8153076171875 75.67366579999999,14.47804865,458.5885009765624 75.67364915,14.4780558,458.220947265625 75.6736405,14.47805917,458.9639282226562 75.67363131,14.47806332,458.878173828125 75.67362043999999,14.4780684,458.821533203125 75.67361126999999,14.47807239,458.8797607421875 75.67360042,14.47807577,458.5257568359375 75.67359166999999,14.47807963,458.2742919921875 75.67358222,14.47808356,458.3582153320312 75.67357178,14.47808674,458.136962890625 75.67356212,14.47809003,458.1176757812499 75.67355354999999,14.47809427,458.1722412109375 75.67354419999999,14.4780981,458.4711303710938 75.67352733,14.47810475,458.6674804687499 75.67351824000001,14.47810857,458.80615234375 75.67350776000001,14.47811196,458.8223266601562 75.67349901999999,14.47811646,458.6082153320312 75.67349067000001,14.47812077,458.7064819335938 75.67348226999999,14.478126,458.6410522460938 75.6734672,14.47813221,458.1693115234374 75.67345198,14.47813275,458.1153564453125 75.67344190999999,14.47812023,457.90576171875 75.67343568,14.47811188,457.6623535156249 75.67343046000001,14.47810409,457.805419921875 75.67342606,14.47809517,458.0314331054687 75.67341673,14.4780795,457.5712890625 75.6734125,14.47807085,457.2166748046875 75.67340385,14.47805543,457.001953125 75.67339852000001,14.47804678,456.704345703125 75.67339002999999,14.47803125,456.5363769531249 75.67338576,14.47802261,456.1807861328124 75.67338094999999,14.47801415,456.154541015625 75.67337249000001,14.47799964,455.822509765625 75.67336881999999,14.47799132,456.2595214843751 75.6733658,14.47798183,456.6806640624999 75.67335724,14.47796711,456.5958251953125 75.67335045,14.47795179,457.3004150390626 75.67334873,14.4779394,457.4775390625 75.67336061,14.47793427,458.3123779296876 75.67337587999999,14.4779253,458.7098388671876 75.67339253999999,14.47791741,458.026123046875 75.67340780000001,14.47791007,458.06591796875 75.67341604000001,14.47790589,458.1368408203125 75.67342479,14.47790165,458.372802734375 75.67343313000001,14.47789732,458.0034179687499 75.6734421,14.47789179,458.13818359375 75.67345041,14.47788707,458.0571899414062 75.67345892,14.47788301,457.7308959960938 75.6734751,14.47787519,457.914306640625 75.67349075,14.47786677,458.418212890625 75.67350628,14.47785833,458.7330322265624 75.67352113,14.47785031,459.0526123046875 75.67353693,14.47784326,458.5498046875 75.67355248,14.47783642,458.309814453125 75.67356829000001,14.47782942,457.6917724609374 75.6735843,14.47782283,457.6762695312501 75.67360085,14.47781528,457.1412963867188 75.67361613,14.47781018,457.7295532226562 75.67363287000001,14.4778061,458.1765747070312 75.67365033,14.47779992,458.6069946289062 75.67365912,14.47779634,458.62646484375 75.67366853999999,14.47779243,458.8753662109375 75.67367710000001,14.47778853,459.3105468749999 75.67368617,14.47778324,459.2891845703124 75.6736944,14.47777868,459.6146850585937 75.67370390000001,14.47777407,459.949951171875 75.67371296,14.47776979,459.9080810546875 75.67372268,14.47776614,459.5814208984375 75.67373284999999,14.47776215,459.4908447265624 75.67374276,14.47775789,459.424072265625 75.67375248,14.47775335,459.2949218750001 75.67376276,14.47774937,459.293701171875 75.67377232,14.47774457,459.1882934570312 75.67378187,14.4777393,459.406982421875 75.67379219999999,14.47773508,459.6566162109376 75.67380183,14.47773133,459.7451171874999 75.67381123,14.47772713,459.5690307617188 75.67382037,14.47772343,459.3507080078125 75.67382975,14.47771917,459.4231567382812 75.673839,14.47771451,459.4736938476562 75.67384789,14.47771032,459.1647338867188 75.67385711999999,14.4777052,459.0479736328125 75.67386630999999,14.4777006,459.00244140625 75.67387544,14.47769679,459.2163696289062 75.67388522,14.47769191,459.3367919921875 75.67389472000001,14.47768757,459.36572265625 75.67390475000001,14.47768302,459.7427368164062 75.67391542,14.47767864,459.949951171875 75.67392486,14.47767446,459.6602783203125 75.67393353,14.47766986,459.4066162109375 75.67394283,14.4776658,459.6185913085938 75.67395272,14.477662,459.6079101562499 75.6739621,14.4776585,459.6151123046874 75.67397146,14.47765406,459.53076171875 75.67398025999999,14.47765021,459.7799682617187 75.67398879,14.47764506,459.98681640625 75.67399810000001,14.47764102,459.579345703125 75.6740149,14.47763475,459.4736938476562 75.67402456000001,14.4776311,459.7506103515624 75.67403425000001,14.47762666,459.6490478515626 75.67404323,14.47762309,459.9871215820312 75.67405232,14.47761873,459.7506103515624 75.67406132000001,14.47761487,459.5616455078125 75.67407933,14.47760737,459.7149047851562 75.67408869,14.47760388,459.965087890625 75.67409718,14.4775996,459.5890502929688 75.67411359,14.47759257,459.8761596679688 75.67412293,14.47759006,459.4764404296874 75.67413937000001,14.47758292,460.2426757812499 75.67415651,14.47757581,460.767578125 75.67416526,14.47757188,460.8668212890625 75.67417389000001,14.47756756,460.8158569335938 75.6741906,14.47756072,460.7918090820312 75.67419944,14.47755693,460.7659912109375 75.67420797,14.47755314,461.121337890625 75.67421684,14.47754862,461.0841674804688 75.67422591,14.47754453,461.316650390625 75.67423529,14.47753994,461.4031982421875 75.67424425999999,14.47753477,461.662109375 75.67425314,14.47753079,461.6251220703125 75.67426238,14.47752674,461.4283447265624 75.67427237,14.47752266,461.2987060546874 75.67428298999999,14.47751882,461.27099609375 75.67429301999999,14.47751593,461.0322265625 75.67430306999999,14.47751182,460.960693359375 75.6743132,14.4775077,461.0648193359375 75.67432332,14.47750327,460.817626953125 75.67433306,14.47749913,460.6537475585938 75.67434281,14.47749492,460.5635986328125 75.67435252,14.47749138,460.5035400390624 75.67436293,14.47748805,460.5347900390625 75.67437359,14.47748416,460.5183105468749 75.67438332,14.47748054,460.2213134765624 75.67439287000001,14.47747605,460.1912231445313 75.67440282,14.47747118,460.2272949218751 75.67441312,14.47746695,460.1821899414062 75.67442266,14.4774631,460.2525634765625 75.67443277,14.47745897,460.0479736328124 75.67444279,14.47745466,460.0433349609375 75.67445268,14.47745056,460.0135498046875 75.67446296,14.47744626,459.963134765625 75.67447312,14.4774421,459.4862060546875 75.67448327,14.47743795,459.1872558593749 75.67449376,14.47743374,458.9421386718749 75.67450469000001,14.47742947,458.9747314453125 75.6745154,14.47742536,459.2810058593749 75.67452563000001,14.47742159,459.1339111328125 75.67453431,14.47741829,459.4483642578124 75.67454395,14.47741408,459.220703125 75.67455366999999,14.47740961,459.1567993164062 75.6745634,14.47740543,459.010986328125 75.67457335,14.47740177,458.7658081054688 75.6745835,14.47739742,458.850341796875 75.67459332999999,14.47739353,459.05419921875 75.67460305,14.47738887,459.3089599609375 75.67461375000001,14.4773849,459.3513793945312 75.67462449,14.47738038,459.5361938476562 75.67463548000001,14.47737592,459.4931640625 75.67464627,14.47737188,459.753662109375 75.67465675,14.4773682,459.6300048828125 75.67466644,14.47736261,459.8690185546875 75.67467645000001,14.47735781,459.9040527343749 75.67468598000001,14.47735412,459.6561279296875 75.67469629999999,14.47734954,459.9101562499999 75.67470600999999,14.47734513,459.78271484375 75.67471607,14.47734116,459.5272216796874 75.67472631,14.47733702,459.3601074218751 75.67473759000001,14.47733248,459.2878417968751 75.67474764000001,14.47732809,459.169677734375 75.6747575,14.47732431,459.0502929687499 75.67476799000001,14.47732061,459.0487060546875 75.67477774,14.47731579,458.9744873046875 75.67478742,14.4773108,458.9926757812499 75.67479792,14.47730609,459.1195068359375 75.67480845,14.4773016,459.012939453125 75.67481891,14.47729742,458.7042236328124 75.67482988,14.47729309,458.3084716796875 75.67484005999999,14.47728873,458.373291015625 75.67485044,14.47728457,458.1234130859375 75.67486101999999,14.47728091,457.7572631835937 75.67487147999999,14.47727613,458.1544189453124 75.67488158,14.47727149,458.2996826171874 75.67489193999999,14.47726722,458.3348999023437 75.67490218,14.47726299,458.6033935546874 75.67491357999999,14.47725801,458.9914550781251 75.67492455,14.477253,458.8039550781249 75.67493347,14.47724761,459.1130981445312 75.67494298,14.47724263,458.9241333007812 75.67495429,14.47723857,459.0469970703125 75.67496579,14.47723408,458.816650390625 75.67497665,14.47722934,459.1450195312499 75.67498738,14.47722511,459.1486206054688 75.67499712,14.47722075,459.3894653320312 75.67500824,14.47721713,459.7156982421874 75.67501921,14.47721379,460.07861328125 75.67502987,14.47721043,460.2833251953125 75.67504106,14.47720638,460.3364868164062 75.67505136,14.47720226,460.1607666015625 75.67506212000001,14.4771974,460.1496582031249 75.67507261999999,14.47719272,459.7261962890625 75.67508247000001,14.47718795,459.5069580078125 75.67509308,14.47718282,459.7010498046874 75.6751046,14.4771778,459.663330078125 75.67511584,14.4771727,459.8923950195312 75.67512622,14.47716819,459.4644165039062 75.67513731,14.47716329,459.351806640625 75.67514761,14.47715832,459.4903564453126 75.67515787000001,14.4771537,459.381103515625 75.67516891,14.47714975,459.3983154296874 75.67517934,14.47714567,459.632568359375 75.67518908,14.47714183,459.4578857421875 75.67520028,14.47713718,459.45166015625 75.6752108,14.47713249,459.667236328125 75.67522124,14.47712844,459.9141845703125 75.67523155000001,14.47712448,459.5272216796874 75.67524147,14.47711959,459.8097534179687 75.67525127,14.4771145,459.9340209960938 75.6752619,14.47711062,459.8441162109375 75.67527246,14.47710564,459.804931640625 75.67528242,14.4771,460.0071411132812 75.67529316,14.47709499,459.7537841796875 75.67530391,14.47708985,459.5056762695312 75.67531467000001,14.47708445,459.45703125 75.67532514,14.47707927,459.42041015625 75.67533532,14.47707482,459.4747314453125 75.67534644,14.47707074,459.3599853515626 75.67535588,14.47706661,459.1368408203124 75.67536655000001,14.47706269,458.947509765625 75.67537758,14.47705837,459.2408447265625 75.67538737,14.47705401,459.485595703125 75.67539776,14.47704967,459.4893188476562 75.67540811000001,14.47704493,459.6817626953125 75.67541749,14.4770402,459.886962890625 75.67542749,14.47703587,460.2027587890625 75.67543777,14.477031,460.0624999999999 75.67544826,14.4770259,460.07958984375 75.67545773000001,14.47702163,459.87744140625 75.67546751,14.47701698,459.9708862304688 75.67547652,14.47701244,459.6880493164062 75.6754859,14.4770089,459.5986328125001 75.67549553000001,14.47700376,459.9392089843749 75.67550537,14.47699961,459.8060302734375 75.67551509,14.4769958,460.0873413085938 75.67552413999999,14.47699129,460.2565917968749 75.67553366999999,14.47698678,460.29736328125 75.67554353,14.47698206,460.2177734375 75.67555364,14.47697747,460.5638427734375 75.67556376,14.4769727,460.3593139648437 75.67557303,14.47696805,460.4475708007812 75.67558175000001,14.47696367,460.2197265625 75.67559074,14.47695929,460.2871093749999 75.67559935,14.47695509,460.1317138671875 75.67560835,14.47695198,460.3447265624999 75.67561741999999,14.47694751,460.1025390625 75.67563441999999,14.47693979,459.9462890624999 75.67564307000001,14.47693598,459.7345581054688 75.67565184999999,14.47693139,459.7911376953125 75.67566109000001,14.47692689,459.6199951171875 75.67567098000001,14.47692281,459.8417358398438 75.67568101000001,14.47691849,459.8140869140625 75.67569725,14.47691269,459.5646972656249 75.67570617,14.47690804,459.7508544921874 75.67571715,14.47690349,459.3912353515624 75.67572822,14.47689871,459.501708984375 75.67573861,14.47689465,459.8112182617188 75.67574786,14.47689056,459.702880859375 75.67575848,14.47688539,459.3990478515625 75.67576880999999,14.4768793,459.6800537109374 75.67577711,14.47687446,459.9137573242188 75.67578659,14.47686971,460.1408691406251 75.67579653,14.47686542,460.0274047851562 75.67580520999999,14.47685981,459.7218017578124 75.67581589,14.47685472,459.6806030273438 75.67582726000001,14.47685,459.4935302734375 75.67583895,14.47684587,459.2725830078125 75.67584988,14.47684129,459.0474853515625 75.67585977,14.47683733,458.907470703125 75.67586961000001,14.47683265,458.6541137695312 75.67588126,14.47682821,458.3933715820312 75.67589301,14.47682344,458.7116088867187 75.67590297,14.476819,458.2990722656249 75.67591276,14.47681413,458.0737304687501 75.67592175,14.47680936,458.47412109375 75.67593079,14.47680458,458.4410400390625 75.67594167,14.47679961,458.9073486328125 75.67595257000001,14.4767966,458.6242675781249 75.67596329,14.47679348,458.9912109375 75.67597425,14.47679155,459.0070800781249 75.67598766,14.47679147,458.5189208984375 75.67601186,14.47675864,457.6622314453124 
					</coordinates>
				</LinearRing>
			</outerBoundaryIs>
		</Polygon>
	</Placemark>
</Document>
</kml>
