<?xml version="1.0" encoding="UTF-8"?>
<kml xmlns="http://www.opengis.net/kml/2.2" xmlns:gx="http://www.google.com/kml/ext/2.2" xmlns:kml="http://www.opengis.net/kml/2.2" xmlns:atom="http://www.w3.org/2005/Atom">
<Document>
	<name>kotihal kuruvatteppa b banakar24</name>
	<visibility>0</visibility>
	<Style id="transparentPolygon">
		<LineStyle>
			<color>ff0000ff</color>
			<width>4</width>
		</LineStyle>
		<PolyStyle>
			<color>7fff0000</color>
		</PolyStyle>
	</Style>
	<Placemark id="04F92852C73DA0474C48">
		<name>kotihal kuruvatteppa b banakar24 </name>
		<description><![CDATA[<b>Area:</b><br>&nbsp;&nbsp;&nbsp;&nbsp;3734.43m²<br>&nbsp;&nbsp;&nbsp;&nbsp;0.37ha<br>&nbsp;&nbsp;&nbsp;&nbsp;0.0km²<br>&nbsp;&nbsp;&nbsp;&nbsp;40197.09ft²<br>&nbsp;&nbsp;&nbsp;&nbsp;4466.34yd²<br>&nbsp;&nbsp;&nbsp;&nbsp;0.92acre<br>&nbsp;&nbsp;&nbsp;&nbsp;0.0mi²<br><b>Distance:</b><br>&nbsp;&nbsp;&nbsp;&nbsp;364.99m<br>&nbsp;&nbsp;&nbsp;&nbsp;0.36km<br>&nbsp;&nbsp;&nbsp;&nbsp;1197.48ft<br>&nbsp;&nbsp;&nbsp;&nbsp;399.16yd<br>&nbsp;&nbsp;&nbsp;&nbsp;0.22mi]]></description>
		<styleUrl>#transparentPolygon</styleUrl>
		<Polygon>
			<outerBoundaryIs>
				<LinearRing>
					<tessellate>1</tessellate>
					<coordinates>
						75.67725166666668,14.47893,447.2 75.67722333333333,14.47877,445.7 75.67722333333333,14.47875666666667,445.2999999999999 75.67722666666667,14.478745,445.7999999999999 75.67722166666667,14.478735,446 75.67720833333333,14.478725,445.4999999999999 75.67720833333333,14.47871166666667,445.2 75.67721333333334,14.47870333333333,444.9999999999999 75.67722499999999,14.47869666666667,445.1 75.67724,14.47869166666667,445.1 75.67725666666666,14.47868666666667,445.4 75.67727333333333,14.47868166666667,446.1000000000001 75.67728833333334,14.47868,447.8 75.67728333333334,14.47867,447.4 75.67727499999999,14.47866333333334,447.3 75.67726666666667,14.47864666666667,447.3 75.67725999999999,14.47863166666667,447.5000000000001 75.67725333333333,14.47862333333333,447.6 75.67724833333334,14.47861333333333,447.4 75.67724333333334,14.47860333333334,446.6 75.67723166666666,14.47859333333333,446 75.67722666666667,14.47857666666667,445.6 75.67722000000001,14.47857,445.2999999999999 75.67721333333334,14.47856166666667,445.2 75.67721,14.47855166666667,445.1 75.67720666666668,14.47853833333333,444.9999999999999 75.67719833333334,14.47851666666667,444.9 75.67719166666667,14.47850166666667,444.7000000000001 75.67718833333333,14.47848333333333,445.1 75.67717999999999,14.47847,444.9999999999999 75.67716999999999,14.47845833333333,445.6 75.67717166666667,14.47844166666667,445.6 75.67717833333333,14.47843,444.6 75.67719000000001,14.47842166666667,444 75.67720166666666,14.47841666666667,443.5 75.67720833333333,14.47840833333334,443.5 75.67721833333333,14.47839833333333,443.5 75.67722499999999,14.47839,443.3 75.67723666666667,14.47838333333333,443.1 75.67724666666666,14.47837833333333,442.7 75.67725333333333,14.47837166666666,442.2 75.67726500000001,14.478365,441.8 75.67727666666666,14.47835666666666,441.6 75.67728833333334,14.47835166666667,441.5 75.67730166666666,14.47834666666667,441.3 75.67731166666667,14.47834333333333,441.3999999999999 75.67733,14.47833833333333,441.6 75.67734,14.47833333333334,441.9 75.67734999999999,14.47833,442.1 75.67736166666667,14.47832833333333,442.1 75.67737166666667,14.47832666666667,442.1 75.67738333333334,14.478325,442.2 75.67739499999999,14.47832333333333,442.2 75.67740666666667,14.47832333333333,442.4 75.67742166666667,14.47832166666667,442.4999999999999 75.677435,14.47831833333334,442.6 75.67744833333333,14.478315,443 75.67746000000001,14.47831333333333,443.1 75.67746833333334,14.47830833333333,443.3 75.67748,14.47830333333334,443.4 75.67749166666667,14.4783,443.7 75.67750166666666,14.47829666666666,443.8999999999999 75.67751,14.47829166666667,444 75.67751833333334,14.478285,443.8 75.67752666666667,14.47828,443.6 75.67754166666667,14.47827166666667,443.4 75.67755333333334,14.47827,443.2 75.67756666666668,14.47827,442.9 75.67757833333333,14.47826666666666,442.7999999999999 75.67759,14.478265,442.6 75.67760166666667,14.47826333333333,442.2 75.67761166666666,14.47826,442.4 75.67762166666667,14.47825666666667,442.4 75.67763166666667,14.47825166666667,442.2 75.67764166666666,14.47825,442.3 75.67765166666666,14.47824666666667,442.4 75.67766499999999,14.47824166666667,442.2 75.67767666666667,14.47823833333334,442.1 75.67768500000001,14.47823333333333,441.9 75.67769833333334,14.47822833333334,441.9 75.67771166666667,14.47822166666666,441.7 75.67772333333333,14.47821666666667,441.6 75.677735,14.47821,441.5 75.67774833333333,14.47820333333333,441.5 75.67776000000001,14.47819833333333,441.6 75.67777333333333,14.478195,441.9 75.67778333333334,14.47819,441.9 75.67779333333333,14.478185,442.2 75.67780166666667,14.47818,442.4 75.67781666666666,14.47817166666667,442.6 75.677835,14.47816666666667,442.9 75.67784666666667,14.47816666666667,443 75.67785833333333,14.47816333333333,443.2 75.67787166666668,14.47815333333333,443.6 75.67788333333333,14.47814833333334,443.8 75.67789833333333,14.47814666666667,444.8 75.67791166666666,14.47814,444.7000000000001 75.67792666666666,14.47813833333334,444.9999999999999 75.67793833333333,14.47813333333334,444.8 75.67795,14.47812666666667,444.6 75.67796,14.47812166666667,444.3999999999999 75.67797166666666,14.47811166666667,444.3 75.67798166666667,14.47810666666667,444.3999999999999 75.67798999999999,14.47809833333333,444.5 75.67800333333334,14.47808666666666,445.1 75.67801333333334,14.47808166666667,445.2 75.67802333333334,14.47807833333333,445.4 75.67803499999999,14.478075,445.4 75.67804500000001,14.47807166666666,445.7 75.67805666666666,14.47806833333333,445.9 75.67806666666667,14.478065,446 75.67807833333333,14.47806,446.1000000000001 75.67809000000001,14.47805333333333,446.2 75.67810333333334,14.47804833333334,446.3 75.67812333333333,14.47804166666666,446 75.67813166666666,14.47803666666667,445.7 75.678145,14.478035,445.2999999999999 75.67816166666667,14.47803166666667,445.2 75.67817166666667,14.47802666666666,444.9 75.67818166666666,14.478025,444.7000000000001 75.67819333333334,14.47802,444.5 75.67820833333333,14.47801666666667,444.3 75.67821833333333,14.47801,444.2 75.67822833333334,14.478005,444 75.67824,14.478,443.8999999999999 75.67824999999999,14.47799333333333,443.8999999999999 75.67825999999999,14.47798666666667,443.8 75.67827000000001,14.47798333333333,443.7 75.67828833333333,14.47797333333333,443.6 75.67830166666666,14.47797,443.2 75.67831833333334,14.477965,442.9 75.67833166666667,14.477965,442.7999999999999 75.67834166666667,14.477965,443.3 75.67835333333333,14.47796833333333,443.4 75.67836166666666,14.47797666666667,443.5 75.67836333333334,14.47799,443.7 75.67836166666666,14.478005,444 75.678365,14.47801666666667,444.2 75.67837,14.47802666666666,444.3 75.67837333333334,14.478045,444.5 75.67837833333333,14.47806166666667,444.5 75.67838833333333,14.47807833333333,444.6 75.67839166666666,14.47809,444.7000000000001 75.67839166666666,14.47810166666666,444.8 75.67839833333333,14.47811833333333,445.1 75.67840666666666,14.478135,444.9999999999999 75.67840333333334,14.47815333333333,444.6 75.67839000000001,14.47815833333333,444.3999999999999 75.678375,14.47816333333333,444.2 75.67836333333334,14.47816833333333,444 75.67835333333333,14.47817166666667,444 75.67833999999999,14.47817833333333,444.2 75.67833166666667,14.47818333333333,444.5 75.67832166666668,14.47818833333333,444.8 75.67831166666666,14.47819166666666,445.1 75.67830166666666,14.47819333333333,445.4 75.67828666666666,14.47819833333333,445.9 75.67827166666666,14.47820333333333,446.1000000000001 75.67826166666667,14.47820666666667,446.2 75.67825166666667,14.47821166666667,446.5 75.678235,14.47822,446.7 75.67822500000001,14.47822333333334,447 75.67821333333333,14.47823,447.1 75.6782,14.47823833333334,447.4 75.67818666666668,14.47824166666667,447.9 75.67817666666666,14.47824666666667,448.4 75.67816666666666,14.47825333333333,448.9 75.67815333333333,14.47825833333333,449.5 75.67813666666666,14.47826666666666,450.2 75.67812666666667,14.47827166666667,450.4 75.67811666666667,14.47827666666667,450.4 75.6781,14.478285,450.1 75.67809000000001,14.47828833333333,449.9 75.67808166666667,14.47829333333333,450 75.67806999999999,14.4783,449.9 75.67806,14.47830333333334,450.1 75.67804166666666,14.47831,450.1 75.67803333333333,14.478315,450.1 75.67802333333334,14.47832,450.1 75.678005,14.47832666666667,450.1 75.67798999999999,14.47833333333334,450 75.67797999999999,14.47833833333333,450 75.67797,14.478345,449.8 75.67796,14.47835333333333,449.3999999999999 75.67795,14.47836333333333,449.2 75.67793499999999,14.47837166666666,448.8 75.677925,14.47837666666667,448.5 75.677915,14.47838166666667,447.9 75.67790333333333,14.47838833333333,446.8 75.67789333333333,14.478395,444.8 75.67788333333333,14.47840166666666,444.6 75.67786666666666,14.47841,444.2 75.67784666666667,14.478415,444.3999999999999 75.67783833333333,14.47842,444.3 75.67782833333334,14.47842666666667,444.5 75.67781833333333,14.47843166666667,444.6 75.67780999999999,14.47844,444.6 75.67780333333333,14.47844666666666,444.7000000000001 75.677795,14.47845333333333,445.1 75.677785,14.47845666666667,445.1 75.67776833333333,14.478465,444.7000000000001 75.67776000000001,14.47847166666667,444.8 75.67774833333333,14.478475,445.1 75.67773666666668,14.47848166666667,444.9 75.67772833333333,14.47848833333333,444.9 75.67771666666665,14.47849666666667,444.9999999999999 75.67770666666667,14.47849833333334,444.9999999999999 75.67768833333334,14.47850166666667,445.4999999999999 75.67767833333333,14.47850666666667,445.7 75.67766666666667,14.47851333333334,445.7999999999999 75.67765333333334,14.478515,445.6 75.67763833333333,14.47851833333333,445.7999999999999 75.67762833333333,14.478525,446.8999999999999 75.67761166666666,14.47853666666667,446.6 75.6776,14.47854333333333,446.6 75.67759,14.47854833333333,446.7 75.67757833333333,14.47855166666667,446.8999999999999 75.67756,14.47855666666667,447 75.67755000000001,14.47856,447.2 75.67753999999999,14.47856333333333,447.4 75.67752333333333,14.47856833333333,447.6 75.67751166666667,14.478575,447.8 75.67749833333333,14.47858,447.8 75.67748666666667,14.478585,447.9 75.67747166666666,14.47859,447.5000000000001 75.67746166666667,14.478595,447.3 75.67744999999999,14.47860166666667,447.1 75.67744166666667,14.47860666666667,446.8999999999999 75.67743,14.47861333333333,446.8 75.67741833333334,14.47861666666667,446.8 75.67740666666667,14.47862,447 75.67739666666667,14.478625,447.3 75.67738833333333,14.47863,447.3 75.67737166666667,14.478635,447.6 75.67736166666667,14.47863666666667,447.5000000000001 75.67734999999999,14.47864166666667,447.4 75.67734,14.47864333333333,447.3 75.67733166666667,14.47864833333333,447.3 75.67732166666666,14.47865666666666,447.3 75.67731000000001,14.478665,447.4 75.67729666666668,14.478675,447.3 75.677285,14.47868,447.2 75.67727666666666,14.478685,447 75.67725166666668,14.47893,447.2 
					</coordinates>
				</LinearRing>
			</outerBoundaryIs>
		</Polygon>
	</Placemark>
</Document>
</kml>
