<?xml version="1.0" encoding="UTF-8"?>
<kml xmlns="http://www.opengis.net/kml/2.2"
	xmlns:gx="http://www.google.com/kml/ext/2.2">
<Document>
	<Style id="transparentPolygon">
		<LineStyle>
<color>FF0000FF</color>
<width>4</width>
		</LineStyle>
		<PolyStyle>
			<color>7FFF0000</color>
		</PolyStyle>
	</Style>
<Placemark>
<name>rajashekag.bannikod.24</name><visibility>1</visibility>
<description><![CDATA[<b>Area:</b><br>&nbsp;&nbsp;&nbsp;&nbsp;3739.46m²<br>&nbsp;&nbsp;&nbsp;&nbsp;0.37ha<br>&nbsp;&nbsp;&nbsp;&nbsp;0.0km²<br>&nbsp;&nbsp;&nbsp;&nbsp;40251.29ft²<br>&nbsp;&nbsp;&nbsp;&nbsp;4472.36yd²<br>&nbsp;&nbsp;&nbsp;&nbsp;0.92acre<br>&nbsp;&nbsp;&nbsp;&nbsp;0.0mi²<br><b>Distance:</b><br>&nbsp;&nbsp;&nbsp;&nbsp;249.39m<br>&nbsp;&nbsp;&nbsp;&nbsp;0.24km<br>&nbsp;&nbsp;&nbsp;&nbsp;818.23ft<br>&nbsp;&nbsp;&nbsp;&nbsp;272.74yd<br>&nbsp;&nbsp;&nbsp;&nbsp;0.15mi]]></description>
	<styleUrl>#transparentPolygon</styleUrl>	<Polygon>		<outerBoundaryIs>			<LinearRing>
				<tessellate>1</tessellate>
				<altitudeMode>clampToGround</altitudeMode>
				<coordinates>
					75.661155,14.461416666666667,464.9
					75.66116000000001,14.461406666666669,464.6
					75.661165,14.461396666666667,463.79999999999995
					75.66117166666666,14.461386666666666,462.5
					75.66117833333332,14.461365,460.5
					75.66117,14.461351666666667,459.0
					75.66116833333334,14.461333333333334,456.29999999999995
					75.66116666666667,14.461318333333335,455.79999999999995
					75.66116333333333,14.461306666666667,455.0
					75.66115666666666,14.461295,454.4
					75.66115166666667,14.461283333333332,453.9
					75.66114833333333,14.461270000000003,453.6
					75.66114333333333,14.46125,453.4
					75.66113999999999,14.461231666666666,452.9
					75.66113833333334,14.461219999999999,452.69999999999993
					75.66113833333334,14.461208333333332,452.4
					75.661145,14.461195000000002,452.19999999999993
					75.661155,14.461189999999998,452.29999999999995
					75.661165,14.461176666666665,452.1
					75.66116666666667,14.461166666666667,452.1
					75.66116833333334,14.461155,452.0
					75.66116833333334,14.461144999999998,451.79999999999995
					75.661165,14.461128333333333,451.0
					75.66114666666667,14.461133333333331,452.0
					75.66113666666666,14.461135000000002,452.5
					75.66112333333334,14.46114,452.79999999999995
					75.66111333333333,14.461141666666666,453.0
					75.6611,14.461144999999998,452.9
					75.66109,14.461148333333332,452.69999999999993
					75.66108,14.461146666666666,452.6
					75.66107000000001,14.461146666666666,452.5
					75.661055,14.461151666666668,452.29999999999995
					75.66104166666668,14.461156666666666,452.1
					75.66103166666667,14.461161666666666,452.0
					75.66102166666666,14.461163333333332,452.1
					75.66100833333333,14.46116,451.9
					75.66099833333332,14.461158333333334,452.19999999999993
					75.66098666666667,14.461151666666668,452.29999999999995
					75.66097166666667,14.461155,451.9
					75.66095833333334,14.461158333333334,451.9
					75.66095,14.461153333333334,451.5
					75.66094333333334,14.461136666666668,450.69999999999993
					75.66093833333333,14.461125000000001,450.1
					75.66093833333333,14.461113333333333,450.1
					75.66093166666666,14.461105000000002,450.1
					75.66092833333333,14.461093333333334,450.0
					75.66092499999999,14.46108,449.9
					75.66091166666666,14.461063333333334,450.0
					75.66090833333332,14.461053333333332,450.1
					75.66090333333334,14.461036666666667,450.9
					75.66090000000001,14.461021666666666,451.29999999999995
					75.660895,14.461009999999998,451.5
					75.66089000000001,14.460996666666665,452.1
					75.66088833333333,14.460985,452.29999999999995
					75.66088833333333,14.460973333333333,452.19999999999993
					75.66088833333333,14.460961666666666,452.29999999999995
					75.66089333333333,14.460946666666667,452.79999999999995
					75.66088666666666,14.460931666666665,452.9
					75.66088833333333,14.460915,453.0
					75.66088333333333,14.460896666666667,456.0
					75.66088166666667,14.460883333333333,457.9
					75.66087666666667,14.460873333333332,459.19999999999993
					75.66087666666667,14.460859999999998,460.6
					75.66088666666666,14.460851666666667,460.79999999999995
					75.66089833333334,14.460844999999999,461.19999999999993
					75.66091,14.460841666666665,461.4
					75.66092,14.460843333333333,461.69999999999993
					75.66093000000001,14.460841666666665,461.9
					75.66094666666666,14.460836666666667,461.79999999999995
					75.66095666666666,14.460833333333335,461.69999999999993
					75.66097333333333,14.460831666666666,462.1
					75.66099,14.46084,462.5
					75.66101,14.460836666666667,462.5
					75.66102333333333,14.460833333333335,462.5
					75.66103833333334,14.460828333333332,462.0
					75.66104833333334,14.460825,461.69999999999993
					75.66105999999999,14.460821666666668,461.69999999999993
					75.66107000000001,14.460816666666664,461.69999999999993
					75.66108,14.460814999999998,461.69999999999993
					75.66109166666666,14.460811666666666,461.79999999999995
					75.6611,14.460805,461.6
					75.66111,14.460798333333333,461.5
					75.66112333333334,14.460795,461.29999999999995
					75.66113999999999,14.460791666666667,460.69999999999993
					75.66115666666666,14.460791666666667,460.19999999999993
					75.66117166666666,14.460791666666667,460.1
					75.66118166666666,14.460791666666667,459.79999999999995
					75.66119333333333,14.460793333333333,458.9
					75.66120500000001,14.460791666666667,458.0
					75.66121833333334,14.460790000000001,457.0
					75.66123666666667,14.460791666666667,455.0
					75.66124666666666,14.460793333333333,454.1
					75.66125666666667,14.460791666666667,453.19999999999993
					75.66126833333333,14.460791666666667,452.29999999999995
					75.66128,14.460791666666667,451.19999999999993
					75.66129666666667,14.460788333333335,449.79999999999995
					75.66130666666666,14.460788333333335,449.19999999999993
					75.66131999999999,14.460790000000001,449.1
					75.66133833333333,14.46078666666667,449.1
					75.66135166666666,14.460793333333333,449.19999999999993
					75.66136333333334,14.460784999999998,448.29999999999995
					75.66137666666667,14.460781666666666,447.79999999999995
					75.66138833333333,14.460781666666666,448.1
					75.66139666666666,14.460788333333335,448.19999999999993
					75.66141333333333,14.460803333333335,448.6
					75.661425,14.460813333333332,449.29999999999995
					75.66143333333333,14.460825,449.19999999999993
					75.66144,14.460831666666666,449.19999999999993
					75.66165166666666,14.461135000000002,449.19999999999993
					75.66150833333333,14.461396666666667,452.79999999999995
					75.661495,14.461398333333333,451.69999999999993
					75.66148833333334,14.46138,451.69999999999993
					75.661495,14.461373333333333,452.1
					75.66150833333333,14.461369999999999,453.1
					75.66152166666667,14.461369999999999,452.9
					75.66153166666666,14.461369999999999,452.1
					75.66154499999999,14.461365,451.4
					75.66155,14.461353333333333,451.4
					75.66155666666667,14.46134,451.79999999999995
					75.66155666666667,14.461328333333332,451.9
					75.66155833333333,14.461313333333331,452.0
					75.661155,14.461416666666667,464.9
				</coordinates>
			</LinearRing>
		</outerBoundaryIs>	</Polygon></Placemark>
</Document>
</kml>
